{"type":"FeatureCollection","features":[{"type":"Feature","properties":{},"geometry":{"type":"Polygon","coordinates":[[[15.9445761,59.3565283],[15.9435457,59.3575435],[15.9416568,59.3586988],[15.9420003,59.359994],[15.9433397,59.359994],[15.9455033,59.3605191],[15.9473169,59.3600968],[15.9474492,59.3599379],[15.9465372,59.359413],[15.9467304,59.3588935],[15.9478247,59.3580624],[15.9480822,59.3574171],[15.948064,59.3570337],[15.9476209,59.3565886],[15.9470952,59.3564],[15.9471595,59.3560637],[15.9468913,59.355957],[15.9467322,59.3563816],[15.9445761,59.3565283]]]}},{"type":"Feature","properties":{},"geometry":{"type":"Polygon","coordinates":[[[15.7674334,59.3789282],[15.7676051,59.3792615],[15.7662747,59.3806523],[15.7660387,59.3809501],[15.7659743,59.3813135],[15.764542,59.3823927],[15.7638446,59.3823298],[15.7626805,59.3803531],[15.7627878,59.3793326],[15.7629273,59.3791823],[15.7636086,59.3790129],[15.7655183,59.3792861],[15.7658187,59.3794336],[15.7658724,59.3789965],[15.7665302,59.3784242],[15.7667199,59.3784117],[15.7673744,59.378521],[15.7673047,59.378644],[15.7674334,59.3789282]]]}},{"type":"Feature","properties":{},"geometry":{"type":"Polygon","coordinates":[[[15.9333381,59.3942591],[15.9342876,59.3936989],[15.9328001,59.3944069],[15.9319466,59.3952365],[15.9315548,59.3958565],[15.9308049,59.3978094],[15.9301275,59.4011188],[15.930244,59.4020883],[15.9308529,59.4033789],[15.9309641,59.4033723],[15.9306887,59.4025732],[15.9312299,59.4018071],[15.9312942,59.4014685],[15.9307685,59.400846],[15.9310153,59.4002561],[15.9314337,59.3973341],[15.9320345,59.3956355],[15.9328177,59.3946632],[15.9333381,59.3942591]]]}},{"type":"Feature","properties":{},"geometry":{"type":"Polygon","coordinates":[[[15.9421166,59.382391],[15.9413167,59.3833081],[15.940615,59.3850267],[15.9401708,59.3882909],[15.9399166,59.389074],[15.9389544,59.3902561],[15.9345458,59.3933759],[15.9362249,59.393171],[15.936544,59.3928937],[15.9364152,59.3925974],[15.9364474,59.3922683],[15.9379656,59.3913395],[15.9398646,59.3897647],[15.9405065,59.3884794],[15.9408386,59.3856225],[15.941146,59.3845801],[15.9419367,59.3827696],[15.942709,59.3817521],[15.9426007,59.3817322],[15.9421166,59.382391]]]}},{"type":"Feature","properties":{},"geometry":{"type":"Polygon","coordinates":[[[15.801945,59.4013919],[15.8018163,59.4014683],[15.801312,59.4015284],[15.800915,59.4015338],[15.8010652,59.4014683],[15.8013871,59.4014574],[15.8016768,59.4014192],[15.8017626,59.4013263],[15.801945,59.4013919]]]}},{"type":"Feature","properties":{},"geometry":{"type":"Polygon","coordinates":[[[15.8004644,59.4013973],[15.8017519,59.4012007],[15.8019343,59.4010041],[15.8005073,59.4011243],[15.800561,59.4008949],[15.8008829,59.4009823],[15.802224,59.400884],[15.8035329,59.4006054],[15.803929,59.4007404],[15.8039835,59.4008676],[15.8047989,59.4009659],[15.8066121,59.400884],[15.8073202,59.400589],[15.8075884,59.4006218],[15.8064833,59.4010533],[15.8039298,59.4010587],[15.8031252,59.400884],[15.8023849,59.401015],[15.801945,59.4013919],[15.8014944,59.4013591],[15.8003893,59.4016321],[15.8004644,59.4013973]]]}},{"type":"Feature","properties":{},"geometry":{"type":"Polygon","coordinates":[[[15.7820191,59.405193],[15.7821825,59.4055312],[15.7821396,59.4060008],[15.7816246,59.4069236],[15.7812813,59.4078136],[15.7813349,59.4080429],[15.7814958,59.4082122],[15.7818928,59.4082886],[15.7828906,59.4083378],[15.7823649,59.4080047],[15.7817855,59.4079501],[15.7815817,59.407628],[15.7819465,59.4067925],[15.7824829,59.4063066],[15.7824078,59.4061919],[15.7825365,59.4055749],[15.7828661,59.4050425],[15.7820191,59.405193]]]}},{"type":"Feature","properties":{},"geometry":{"type":"Polygon","coordinates":[[[15.8133712,59.4004367],[15.8126202,59.4005617],[15.8114937,59.4005399],[15.8104101,59.400316],[15.8096912,59.4003214],[15.8079639,59.4004416],[15.8075884,59.4006218],[15.8069232,59.4005563],[15.8065155,59.4007092],[15.805346,59.4007693],[15.8036616,59.4007256],[15.8026853,59.4002832],[15.8009687,59.4003651],[15.800561,59.4008949],[15.8003893,59.4016321],[15.7984903,59.4021564],[15.7975891,59.4025496],[15.7966557,59.4033251],[15.7963446,59.4037237],[15.7962373,59.4047667],[15.7958725,59.4053619],[15.7954111,59.4055967],[15.7952849,59.4057975],[15.7944245,59.406026],[15.7939198,59.4063393],[15.7929835,59.407431],[15.7925972,59.4076593],[15.7906905,59.4081139],[15.7879975,59.4082231],[15.7868251,59.4085829],[15.7848003,59.4087036],[15.7847776,59.4086169],[15.7863238,59.4084142],[15.784693,59.4084797],[15.7845858,59.4083159],[15.7842207,59.4083105],[15.7858947,59.4081412],[15.786377,59.4079571],[15.7864291,59.4077558],[15.7874439,59.4075753],[15.7883838,59.4078107],[15.7907597,59.40774],[15.7914845,59.4071344],[15.7928272,59.406516],[15.793319,59.4059353],[15.7951,59.4052418],[15.795781,59.4043906],[15.7956488,59.4042511],[15.7957837,59.4038841],[15.7957187,59.4034147],[15.797117,59.4024458],[15.7969495,59.4017365],[15.7975569,59.4015775],[15.7979753,59.4018178],[15.7991555,59.4013318],[15.8003142,59.4005781],[15.8000353,59.4002122],[15.8006575,59.4000757],[15.8023205,59.4000101],[15.8027711,59.4000484],[15.8030501,59.4002832],[15.8055821,59.4004689],[15.8061722,59.4003597],[15.8070627,59.3997808],[15.8092513,59.3996715],[15.8123091,59.4001576],[15.8132276,59.4000232],[15.8133712,59.4004367]]]}},{"type":"Feature","properties":{},"geometry":{"type":"Polygon","coordinates":[[[15.7587286,59.3961378],[15.7579347,59.3968041],[15.7568929,59.396897],[15.755746,59.3976016],[15.7544156,59.3975579],[15.7540938,59.3973066],[15.7541893,59.3966567],[15.756261,59.3968041],[15.7568404,59.3965638],[15.7576343,59.3956025],[15.7587286,59.3961378]]]}},{"type":"Feature","properties":{},"geometry":{"type":"Polygon","coordinates":[[[15.768685,59.3761085],[15.7689307,59.3763649],[15.7685659,59.3768239],[15.7680198,59.3772344],[15.7678482,59.3777481],[15.7671497,59.3778076],[15.76714,59.3773874],[15.7671926,59.3766818],[15.7678578,59.3761462],[15.7683631,59.3759774],[15.768685,59.3761085]]]}},{"type":"Feature","properties":{},"geometry":{"type":"Polygon","coordinates":[[[15.7657668,59.371091],[15.7660886,59.3715393],[15.7663676,59.3720749],[15.766153,59.3724794],[15.7655736,59.3727964],[15.7652303,59.3728074],[15.7652518,59.3722936],[15.7652732,59.3715502],[15.7652732,59.3712222],[15.7657668,59.371091]]]}},{"type":"Feature","properties":{},"geometry":{"type":"Polygon","coordinates":[[[15.7952016,59.3758252],[15.7951453,59.3761258],[15.7956764,59.3771027],[15.7964945,59.3777564],[15.79698,59.3779224],[15.7978758,59.3778323],[15.7980689,59.3776506],[15.7981896,59.377156],[15.799233,59.3764168],[15.7988092,59.3762583],[15.7974413,59.3763348],[15.7967493,59.3759482],[15.7964113,59.3756612],[15.7963979,59.3754658],[15.7958802,59.3757118],[15.7952016,59.3758252]]]}},{"type":"Feature","properties":{},"geometry":{"type":"Polygon","coordinates":[[[15.944365,59.3757343],[15.9440571,59.3758492],[15.9437866,59.3762435],[15.943555,59.3773977],[15.9438684,59.3782503],[15.9441523,59.3786334],[15.9453948,59.3795472],[15.9448967,59.3800979],[15.9447348,59.3806794],[15.9443904,59.3808211],[15.9444907,59.3809922],[15.9443893,59.3815547],[15.9442401,59.3816341],[15.9438947,59.3813734],[15.9433366,59.3813215],[15.9429035,59.3816359],[15.9426283,59.381688],[15.9435624,59.3802062],[15.9438505,59.3794025],[15.943753,59.3783143],[15.943187,59.3772022],[15.9432513,59.3767388],[15.943692,59.3758424],[15.9444517,59.3752162],[15.944365,59.3757343]]]}},{"type":"Feature","properties":{},"geometry":{"type":"Polygon","coordinates":[[[15.5834199,59.1808535],[15.5828029,59.1843184],[15.582583,59.1845966],[15.5816925,59.1847065],[15.5806291,59.1838383],[15.5803992,59.183496],[15.5805684,59.1833093],[15.5819498,59.1832797],[15.5804833,59.1831555],[15.5807162,59.1827663],[15.5807162,59.1824915],[15.5805301,59.1823939],[15.5805128,59.1822249],[15.5807484,59.1819309],[15.580682,59.1814358],[15.5808512,59.1813247],[15.5808122,59.1812002],[15.5817364,59.181198],[15.5819071,59.1811668],[15.5819179,59.1809909],[15.582347,59.1808975],[15.5834199,59.1808535]]]}},{"type":"Feature","properties":{},"geometry":{"type":"Polygon","coordinates":[[[15.582347,59.1786768],[15.5826163,59.1790968],[15.5826858,59.1795303],[15.5834841,59.1803884],[15.583432,59.1807419],[15.5818857,59.1807821],[15.5813711,59.180604],[15.5814058,59.1804151],[15.5812956,59.1803203],[15.5818267,59.1802573],[15.5820466,59.1799026],[15.5815209,59.1796003],[15.5814994,59.1792594],[15.5821324,59.1789461],[15.5821998,59.1786945],[15.582347,59.1786768]]]}},{"type":"Feature","properties":{},"geometry":{"type":"Polygon","coordinates":[[[15.5941707,59.1867562],[15.5941282,59.186235],[15.5943158,59.1859054],[15.5933124,59.1854812],[15.5932281,59.1852658],[15.5933737,59.184742],[15.5929868,59.1847832],[15.59188,59.1845811],[15.5912595,59.1840278],[15.5914779,59.1837747],[15.5914885,59.1835465],[15.5903672,59.1837727],[15.5902982,59.1840474],[15.589942,59.1841534],[15.5887433,59.1838591],[15.588728,59.1841024],[15.5883833,59.1842279],[15.5883756,59.1844261],[15.5880003,59.1844732],[15.5882492,59.1846753],[15.5883296,59.1849401],[15.5886169,59.1850402],[15.5888582,59.185305],[15.5896012,59.1854875],[15.589831,59.1858367],[15.5906697,59.1859603],[15.5908038,59.1861624],[15.5931193,59.1864704],[15.5930788,59.1862585],[15.5934081,59.1860937],[15.5937222,59.1860977],[15.5939635,59.1862781],[15.5937988,59.1864488],[15.5933545,59.1865705],[15.5936264,59.1867313],[15.5941707,59.1867562]]]}},{"type":"Feature","properties":{},"geometry":{"type":"Polygon","coordinates":[[[15.5857664,59.1755582],[15.5858049,59.1756704],[15.5856753,59.1757004],[15.585799,59.1761766],[15.585539,59.1764535],[15.5856128,59.1770449],[15.5864889,59.1782125],[15.5860532,59.1787189],[15.5860401,59.1792902],[15.5872077,59.1799166],[15.5870121,59.180086],[15.5862766,59.1801138],[15.5855043,59.1799671],[15.5850507,59.1797377],[15.5847732,59.1791346],[15.5845866,59.1790023],[15.5844847,59.178471],[15.5842829,59.1782887],[15.5842265,59.177355],[15.5839466,59.1766536],[15.5837861,59.1766136],[15.5838295,59.1764324],[15.5840636,59.1763624],[15.5840636,59.1760271],[15.5854704,59.1754421],[15.5857664,59.1755582]]]}},{"type":"Feature","properties":{},"geometry":{"type":"Polygon","coordinates":[[[15.8791295,59.3150307],[15.8888142,59.3152958],[15.8912779,59.3161692],[15.892622,59.3154757],[15.8929851,59.3137287],[15.8927517,59.3131993],[15.8851811,59.3109128],[15.8848877,59.3103887],[15.8833106,59.3093591],[15.881,59.3091158],[15.8794596,59.3085167],[15.8789095,59.3077305],[15.8767089,59.3079364],[15.8752052,59.3067195],[15.8750585,59.3054278],[15.8733347,59.3045853],[15.8730413,59.3013087],[15.8716109,59.3008968],[15.8713909,59.3004849],[15.8688969,59.299867],[15.8670998,59.3003163],[15.8639823,59.2984813],[15.8620018,59.2981255],[15.8599479,59.2985],[15.8590677,59.298912],[15.859031,59.2994737],[15.8582975,59.2992865],[15.8572706,59.2983128],[15.8556935,59.2977697],[15.851109,59.2983315],[15.8489451,59.2989681],[15.8482482,59.2995674],[15.8475514,59.2996235],[15.8464878,59.299118],[15.8454608,59.2995112],[15.8443972,59.2974888],[15.8427835,59.2961218],[15.840803,59.2956723],[15.8387124,59.295766],[15.8380523,59.2961405],[15.8376855,59.2958783],[15.8395193,59.2941929],[15.8396293,59.2923575],[15.8382723,59.2903909],[15.8386391,59.2897353],[15.8414998,59.2883867],[15.84216,59.287319],[15.8442872,59.2861202],[15.8444339,59.2847152],[15.8441038,59.2838722],[15.8474047,59.2813056],[15.8476981,59.2797506],[15.8472947,59.2795257],[15.8457909,59.2797506],[15.843407,59.2809871],[15.8424167,59.2805749],[15.8423434,59.2799192],[15.8417566,59.2796569],[15.8401428,59.2795819],[15.8371354,59.2810808],[15.8344213,59.2820175],[15.8343113,59.2834788],[15.8347514,59.2839659],[15.8342013,59.2843967],[15.8341279,59.2850149],[15.8324775,59.2858017],[15.8313772,59.285783],[15.8307537,59.2852585],[15.830607,59.284659],[15.8298735,59.2841719],[15.8302036,59.2838722],[15.8299102,59.2836099],[15.8282964,59.2837973],[15.8277463,59.2834975],[15.8263893,59.283816],[15.8248855,59.2834788],[15.8230151,59.2843593],[15.8231984,59.2847527],[15.8218414,59.2853521],[15.8220248,59.286345],[15.8226483,59.2865323],[15.822795,59.2869069],[15.8225016,59.2872816],[15.8230517,59.2874501],[15.8230151,59.2877686],[15.8246288,59.2883118],[15.826536,59.2886489],[15.8292867,59.2875813],[15.8327709,59.2867758],[15.8343847,59.2879746],[15.8345314,59.2889861],[15.8353016,59.2902223],[15.8342746,59.2918331],[15.8347881,59.2919454],[15.8349348,59.29232],[15.8345314,59.2926384],[15.8348248,59.2929381],[15.8338345,59.2939494],[15.8333577,59.2939869],[15.8335044,59.2936497],[15.833101,59.2935374],[15.8321107,59.294043],[15.830717,59.2951292],[15.8302403,59.2960656],[15.8288832,59.2965712],[15.8286265,59.2972641],[15.8294701,59.2976012],[15.8285532,59.2979008],[15.827783,59.2976948],[15.8275996,59.2980131],[15.8281497,59.2986873],[15.8276729,59.2987434],[15.8275996,59.2994176],[15.8279663,59.3000168],[15.8272695,59.3001665],[15.8271961,59.3008406],[15.8292141,59.3018126],[15.8307373,59.3021108],[15.8320806,59.3022413],[15.8325875,59.3013649],[15.8334026,59.3014967],[15.8332217,59.3029005],[15.8345119,59.303825],[15.8355158,59.3056709],[15.8376717,59.3076466],[15.8386159,59.3075809],[15.8400535,59.3083585],[15.8451876,59.3083596],[15.8475852,59.3094538],[15.8500314,59.3093333],[15.8556962,59.312553],[15.8572411,59.3143489],[15.8574128,59.3155316],[15.8595156,59.3163638],[15.8617043,59.316539],[15.8629703,59.3151374],[15.8624768,59.31367],[15.8627343,59.3131115],[15.8601379,59.313002],[15.8593442,59.3123835],[15.8595342,59.3112189],[15.8586144,59.3106804],[15.8592877,59.3098458],[15.8601482,59.3094161],[15.8607924,59.3102916],[15.8625519,59.3108391],[15.8666825,59.3078328],[15.8698138,59.3078802],[15.8698505,59.3075433],[15.8691536,59.3073186],[15.8704006,59.3074684],[15.8709874,59.3072812],[15.8711341,59.3067008],[15.871721,59.3068131],[15.8713909,59.3076743],[15.8727846,59.3089847],[15.8717576,59.309902],[15.8717576,59.3104448],[15.8706207,59.311961],[15.872051,59.312429],[15.8719043,59.3134584],[15.8752785,59.3146751],[15.8791295,59.3150307]]]}},{"type":"Feature","properties":{},"geometry":{"type":"Polygon","coordinates":[[[15.7782774,59.379153],[15.7785273,59.3790096],[15.7786643,59.3786767],[15.778633,59.3784988],[15.7783315,59.3784045],[15.7780867,59.3784877],[15.7776562,59.3788569],[15.7775369,59.3790211],[15.7776355,59.3791344],[15.7782774,59.379153]]]}},{"type":"Feature","properties":{},"geometry":{"type":"Polygon","coordinates":[[[15.6123649,59.412947],[15.6122546,59.4128534],[15.6121663,59.4127486],[15.6119971,59.4126102],[15.6119971,59.4124642],[15.6122472,59.412408],[15.612409,59.4125203],[15.6124532,59.4126214],[15.6125709,59.4127112],[15.6126665,59.4127936],[15.6127253,59.4128834],[15.6125635,59.4129208],[15.6123649,59.412947]]]}},{"type":"Feature","properties":{},"geometry":{"type":"Polygon","coordinates":[[[15.6060509,59.4125115],[15.6039236,59.4113814],[15.603856,59.4112278],[15.6043501,59.4109499],[15.6059677,59.4120695],[15.606389,59.4121992],[15.6069195,59.4120377],[15.6070131,59.4118869],[15.6069039,59.4117281],[15.6045998,59.4103941],[15.6049846,59.4100156],[15.6053695,59.4104285],[15.607658,59.4118578],[15.6079389,59.4119266],[15.6064618,59.4126729],[15.6062329,59.4126756],[15.6060509,59.4125115]]]}},{"type":"Feature","properties":{},"geometry":{"type":"Polygon","coordinates":[[[15.6259517,59.3099446],[15.6258215,59.3104167],[15.6250529,59.3103276],[15.6247998,59.3105537],[15.6253376,59.3109775],[15.6256223,59.3110179],[15.6256777,59.3112479],[15.6268007,59.3115385],[15.6268877,59.3116314],[15.6267849,59.3116677],[15.6276311,59.3124346],[15.6283034,59.3123821],[15.6287937,59.3120229],[15.6283903,59.3114982],[15.6280266,59.3114982],[15.627125,59.3110623],[15.6272752,59.3109775],[15.6272594,59.3107838],[15.627386,59.3107797],[15.6272831,59.310594],[15.6271012,59.3105698],[15.6271566,59.3101218],[15.6265714,59.3099522],[15.6259517,59.3099446]]]}},{"type":"Feature","properties":{},"geometry":{"type":"Polygon","coordinates":[[[15.5980538,59.2195862],[15.5980029,59.2195242],[15.5979707,59.2194693],[15.5979492,59.2194144],[15.5979305,59.2193611],[15.5982791,59.2192733],[15.5987163,59.2191975],[15.5989014,59.219169],[15.5990033,59.2191717],[15.5990677,59.2192294],[15.5991053,59.2193172],[15.5991106,59.2193776],[15.5990945,59.2194325],[15.5989336,59.2194792],[15.5985876,59.2195407],[15.5983221,59.2195753],[15.5981558,59.2195945],[15.5980538,59.2195862]]]}},{"type":"Feature","properties":{},"geometry":{"type":"Polygon","coordinates":[[[15.6248062,59.213369],[15.6248357,59.2135146],[15.6250154,59.2134102],[15.6248062,59.213369]]]}},{"type":"Feature","properties":{},"geometry":{"type":"Polygon","coordinates":[[[15.5937008,59.2219717],[15.5937464,59.2220253],[15.5937928,59.2220711],[15.5938464,59.2221027],[15.5938893,59.2221137],[15.5939502,59.2221049],[15.5940039,59.2220884],[15.5940261,59.2220725],[15.5940261,59.222056],[15.5940065,59.2220266],[15.5940012,59.2219951],[15.5940073,59.2219723],[15.5940154,59.2219544],[15.5940181,59.221938],[15.5939993,59.2219174],[15.5939368,59.2219155],[15.5937973,59.2219415],[15.5937008,59.2219717]]]}},{"type":"Feature","properties":{},"geometry":{"type":"Polygon","coordinates":[[[15.6046361,59.1967588],[15.60462,59.1967835],[15.60462,59.1968165],[15.604653,59.1968247],[15.6046951,59.1968247],[15.6047514,59.1968178],[15.604771,59.1968027],[15.6047782,59.1967821],[15.6047683,59.1967643],[15.6047388,59.1967574],[15.604687,59.1967547],[15.6046361,59.1967588]]]}},{"type":"Feature","properties":{},"geometry":{"type":"Polygon","coordinates":[[[15.9801242,59.1914381],[15.9809757,59.1908268],[15.9812158,59.1907821],[15.9809684,59.1905137],[15.9812377,59.1902342],[15.9813541,59.1894141],[15.9810557,59.1889743],[15.9816015,59.1885344],[15.9813468,59.1883928],[15.9815142,59.1882101],[15.9810557,59.1880051],[15.9804954,59.1875242],[15.979855,59.1876473],[15.979673,59.1875392],[15.9801897,59.1874012],[15.9802334,59.1871179],[15.9787561,59.1865513],[15.9782248,59.1865513],[15.9779847,59.1866743],[15.9773079,59.1875019],[15.976813,59.1875951],[15.975816,59.188061],[15.9753648,59.1884673],[15.9754085,59.1887096],[15.9752047,59.1887506],[15.9749888,59.1890176],[15.9751183,59.1894505],[15.9755592,59.1898346],[15.9758419,59.1895225],[15.976301,59.1894405],[15.9771119,59.189809],[15.9769737,59.1899414],[15.9762473,59.190059],[15.9767575,59.1903301],[15.9766628,59.1906092],[15.9783616,59.1910173],[15.9787279,59.1912213],[15.9792373,59.1911767],[15.9801242,59.1914381]]]}},{"type":"Feature","properties":{},"geometry":{"type":"Polygon","coordinates":[[[15.8975118,59.3904896],[15.8975171,59.3906958],[15.8978041,59.390689],[15.8977237,59.3903721],[15.8975118,59.3904896]]]}},{"type":"Feature","properties":{},"geometry":{"type":"Polygon","coordinates":[[[15.6184493,59.3509924],[15.6177222,59.3511574],[15.617676,59.3509924],[15.6169766,59.3507176],[15.6168195,59.350482],[15.6170136,59.3499228],[15.6169766,59.3495317],[15.6164651,59.3489929],[15.6162156,59.3483018],[15.6153837,59.3478714],[15.6145426,59.3476986],[15.6147983,59.347584],[15.617827,59.3487353],[15.6178485,59.3489317],[15.6173833,59.3496244],[15.6175651,59.3499951],[15.6174911,59.3502212],[15.6175928,59.3504459],[15.6183507,59.3507349],[15.6186095,59.3509705],[15.6184493,59.3509924]]]}},{"type":"Feature","properties":{},"geometry":{"type":"Polygon","coordinates":[[[15.8935455,59.3834083],[15.8951973,59.3830794],[15.8954288,59.382885],[15.8953405,59.382757],[15.8954488,59.3826134],[15.8957094,59.3824526],[15.8965778,59.3823422],[15.8965582,59.3821859],[15.8957651,59.3820309],[15.895384,59.3821041],[15.894898,59.3825373],[15.8937353,59.3831411],[15.8935455,59.3834083]]]}},{"type":"Feature","properties":{},"geometry":{"type":"Polygon","coordinates":[[[15.8953898,59.3806638],[15.8954717,59.3805077],[15.8957935,59.3805649],[15.8956608,59.3806872],[15.895109,59.3807314],[15.8953898,59.3806638]]]}},{"type":"Feature","properties":{},"geometry":{"type":"Polygon","coordinates":[[[15.8962707,59.3805761],[15.8962138,59.380568],[15.8961218,59.3805629],[15.8960454,59.3805862],[15.8960196,59.3806383],[15.8960888,59.3806898],[15.8962267,59.3807133],[15.8963442,59.3807055],[15.8964386,59.3806696],[15.8964847,59.3806253],[15.8964925,59.3805675],[15.8964976,59.3805232],[15.8964745,59.3804769],[15.8964158,59.3804686],[15.8963466,59.3804769],[15.8963109,59.380516],[15.896316,59.3805603],[15.8962707,59.3805761]]]}},{"type":"Feature","properties":{},"geometry":{"type":"Polygon","coordinates":[[[15.8800652,59.3913444],[15.8799987,59.3913835],[15.8799528,59.3914407],[15.8799834,59.3914796],[15.8800703,59.3915109],[15.8801572,59.3915161],[15.8802543,59.3915005],[15.8803565,59.3914614],[15.8804024,59.3914224],[15.8804024,59.3913861],[15.8803718,59.3913522],[15.8803002,59.3913314],[15.880172,59.391332],[15.8800652,59.3913444]]]}},{"type":"Feature","properties":{},"geometry":{"type":"Polygon","coordinates":[[[15.5835485,59.1845033],[15.5838919,59.1837448],[15.5840742,59.1831787],[15.5840957,59.1828104],[15.5841172,59.182706],[15.5841923,59.1825961],[15.5848253,59.1820574],[15.5856621,59.1813154],[15.5858445,59.1813099],[15.5858445,59.1813868],[15.58519,59.1820739],[15.5849111,59.1822608],[15.5846429,59.1824532],[15.5845034,59.1825741],[15.5843961,59.182772],[15.5842888,59.183382],[15.5841923,59.1837668],[15.5839348,59.184201],[15.5837417,59.1845198],[15.5835485,59.1845033]]]}},{"type":"Feature","properties":{},"geometry":{"type":"Polygon","coordinates":[[[15.7180291,59.1924731],[15.717954,59.1926462],[15.7181874,59.1926723],[15.7183993,59.1923124],[15.718064,59.1922904],[15.7180291,59.1924731]]]}},{"type":"Feature","properties":{},"geometry":{"type":"Polygon","coordinates":[[[15.8404249,59.3747675],[15.8407789,59.3747237],[15.8410686,59.3747019],[15.8410686,59.3745324],[15.8408004,59.3744231],[15.8405429,59.3743849],[15.8402747,59.3744231],[15.8401567,59.3745161],[15.8401138,59.3746199],[15.8401996,59.3747292],[15.8404249,59.3747675]]]}},{"type":"Feature","properties":{},"geometry":{"type":"Polygon","coordinates":[[[15.8404142,59.3743084],[15.8403069,59.3742482],[15.8403498,59.3740078],[15.8405322,59.3739148],[15.840736,59.3739586],[15.8407897,59.3740952],[15.840736,59.3742974],[15.8404142,59.3743084]]]}},{"type":"Feature","properties":{},"geometry":{"type":"Polygon","coordinates":[[[15.860646,59.3753291],[15.8603563,59.3753018],[15.8601136,59.3751392],[15.8601138,59.3749343],[15.8602624,59.3747689],[15.8609035,59.3748153],[15.8611073,59.3749738],[15.8610322,59.375105],[15.860646,59.3753291]]]}},{"type":"Feature","properties":{},"geometry":{"type":"Polygon","coordinates":[[[15.8618235,59.3721357],[15.8621132,59.3718843],[15.8624673,59.3716711],[15.8626926,59.3712994],[15.8626818,59.3709387],[15.8622634,59.3708567],[15.8615293,59.3709948],[15.8616304,59.3711901],[15.8616304,59.3713377],[15.8615392,59.3716547],[15.8616089,59.3720155],[15.8618235,59.3721357]]]}},{"type":"Feature","properties":{},"geometry":{"type":"Polygon","coordinates":[[[15.8217555,59.328837],[15.8210796,59.3278355],[15.8215195,59.3276603],[15.8219272,59.327228],[15.8221203,59.3272444],[15.8255535,59.3258487],[15.825693,59.3259308],[15.8256731,59.326497],[15.8254033,59.3267299],[15.824942,59.3267901],[15.8241051,59.3273539],[15.8241158,59.3276385],[15.8237833,59.3276768],[15.8237725,59.3274469],[15.8235687,59.3273648],[15.822764,59.3277206],[15.823,59.3281474],[15.8226353,59.3284047],[15.8218735,59.3282843],[15.8217126,59.3280654],[15.8219379,59.3279887],[15.8218306,59.3275454],[15.8211976,59.3278683],[15.8218306,59.3288042],[15.8217555,59.328837]]]}},{"type":"Feature","properties":{},"geometry":{"type":"Polygon","coordinates":[[[15.9045123,59.4652145],[15.9049307,59.4651927],[15.9055852,59.4648002],[15.9054028,59.4645494],[15.9054993,59.4644295],[15.9052955,59.4642823],[15.9054135,59.4639062],[15.9048771,59.4635519],[15.9050487,59.4634919],[15.9043943,59.463481],[15.9033536,59.4639553],[15.9026777,59.4646421],[15.9029673,59.4648383],[15.9042226,59.46504],[15.9045123,59.4652145]]]}},{"type":"Feature","properties":{},"geometry":{"type":"Polygon","coordinates":[[[15.9341991,59.393662],[15.9345913,59.3934203],[15.9346938,59.3934688],[15.9342876,59.3936989],[15.9341991,59.393662]]]}},{"type":"Feature","properties":{},"geometry":{"type":"Polygon","coordinates":[[[15.7393661,59.4017974],[15.7396531,59.4016922],[15.7397389,59.4015202],[15.7397765,59.401228],[15.7393366,59.4012089],[15.7390416,59.4016322],[15.7393071,59.4017974],[15.7393661,59.4017974]]]}},{"type":"Feature","properties":{},"geometry":{"type":"Polygon","coordinates":[[[15.78523,59.4949015],[15.7854297,59.4949879],[15.785741,59.4950655],[15.7860288,59.4950655],[15.7864576,59.4949432],[15.7864283,59.494818],[15.7862521,59.4947136],[15.7860347,59.4946092],[15.7857293,59.4945019],[15.7854238,59.4945198],[15.78523,59.4945884],[15.7851477,59.4947136],[15.7851653,59.494818],[15.78523,59.4949015]]]}},{"type":"Feature","properties":{},"geometry":{"type":"Polygon","coordinates":[[[15.7449853,59.4304766],[15.7449531,59.4302857],[15.7453823,59.4301602],[15.7455861,59.4301929],[15.7454896,59.4304657],[15.745275,59.430613],[15.7450068,59.4305476],[15.7449853,59.4304766]]]}},{"type":"Feature","properties":{},"geometry":{"type":"Polygon","coordinates":[[[15.7762277,59.4054275],[15.7763028,59.405138],[15.7768392,59.405351],[15.7768285,59.4055203],[15.7765281,59.4055203],[15.7762277,59.4054275]]]}},{"type":"Feature","properties":{},"geometry":{"type":"Polygon","coordinates":[[[15.7566905,59.3944445],[15.7561862,59.3941932],[15.7563901,59.3939584],[15.7566905,59.393871],[15.7571304,59.3937235],[15.7574093,59.3937672],[15.7573771,59.3939693],[15.7575595,59.3941823],[15.7576454,59.3943407],[15.7575166,59.394521],[15.7572055,59.3946248],[15.7566905,59.3944445]]]}},{"type":"Feature","properties":{},"geometry":{"type":"Polygon","coordinates":[[[15.7953572,59.3444274],[15.7950783,59.3443071],[15.7950139,59.3440992],[15.7952499,59.3438804],[15.7955611,59.3436342],[15.7959688,59.3435686],[15.7963979,59.3435686],[15.7966761,59.3435869],[15.7968914,59.3437436],[15.7969236,59.3439296],[15.7967734,59.3440937],[15.7962692,59.3443673],[15.7959251,59.344495],[15.7956254,59.3444986],[15.7953572,59.3444274]]]}},{"type":"Feature","properties":{},"geometry":{"type":"Polygon","coordinates":[[[16.0080127,59.5093989],[16.0077935,59.5098011],[16.0080206,59.5097523],[16.0081332,59.509727],[16.0083276,59.509663],[16.0083925,59.5096108],[16.0083777,59.5094767],[16.0080127,59.5093989]]]}},{"type":"Feature","properties":{},"geometry":{"type":"Polygon","coordinates":[[[15.9596508,59.5468624],[15.9596185,59.5468148],[15.9595657,59.5467836],[15.959507,59.5467524],[15.9595129,59.5467048],[15.9595892,59.546675],[15.9596361,59.5466304],[15.9596655,59.5465843],[15.9597242,59.5465739],[15.959909,59.5466022],[15.9599208,59.5466275],[15.9598973,59.5466855],[15.9599296,59.5467167],[15.9599061,59.5467464],[15.9598415,59.5467405],[15.9597652,59.5467613],[15.9597506,59.546797],[15.9597711,59.5468238],[15.95973,59.5468505],[15.9596508,59.5468624]]]}},{"type":"Feature","properties":{},"geometry":{"type":"Polygon","coordinates":[[[15.9392148,59.3769169],[15.9389734,59.3769223],[15.9387562,59.3769114],[15.9386596,59.3768909],[15.9385899,59.376839],[15.9385496,59.3767761],[15.9385496,59.3767215],[15.9385657,59.3766791],[15.9386489,59.3766381],[15.938842,59.3766313],[15.9391344,59.3766245],[15.9393677,59.3766381],[15.9394804,59.3766791],[15.9395099,59.3767625],[15.9394535,59.3768226],[15.9392148,59.3769169]]]}},{"type":"Feature","properties":{},"geometry":{"type":"Polygon","coordinates":[[[15.9544638,59.4472021],[15.9544904,59.4472282],[15.9545187,59.4472579],[15.9545505,59.4472884],[15.9545771,59.4473082],[15.9546107,59.4473091],[15.9546319,59.4472956],[15.9546142,59.4472633],[15.9546001,59.4472381],[15.954593,59.447212],[15.9545789,59.4471886],[15.9545452,59.4471715],[15.9544939,59.4471697],[15.9544674,59.4471769],[15.9544638,59.4472021]]]}},{"type":"Feature","properties":{},"geometry":{"type":"Polygon","coordinates":[[[15.9553759,59.443737],[15.9563491,59.4430028],[15.9569154,59.442992],[15.9570711,59.4431612],[15.9564907,59.4439799],[15.9557439,59.4439511],[15.9553759,59.443737]]]}},{"type":"Feature","properties":{},"geometry":{"type":"Polygon","coordinates":[[[15.9618658,59.5243839],[15.9623553,59.5245494],[15.9625789,59.5242858],[15.9620229,59.5241448],[15.9618658,59.5243839]]]}},{"type":"Feature","properties":{},"geometry":{"type":"Polygon","coordinates":[[[15.9620531,59.5241019],[15.9623009,59.5238598],[15.9628872,59.5240008],[15.96273,59.5241785],[15.9625971,59.5242306],[15.9620531,59.5241019]]]}},{"type":"Feature","properties":{},"geometry":{"type":"Polygon","coordinates":[[[15.9624157,59.5238138],[15.962724,59.5235563],[15.9631289,59.5236483],[15.9633404,59.5237371],[15.9630624,59.5239057],[15.9628569,59.5238904],[15.9627723,59.5239057],[15.9624157,59.5238138]]]}},{"type":"Feature","properties":{},"geometry":{"type":"MultiPolygon","coordinates":[[[[15.7282483,59.5506442],[15.7295094,59.5503135],[15.7310486,59.5500951],[15.7325806,59.5500791],[15.7329798,59.5502038],[15.7331096,59.5506869],[15.7335055,59.5508236],[15.7333231,59.5514271],[15.7336128,59.5518784],[15.7335162,59.5524384],[15.7336664,59.5538193],[15.7333231,59.5540803],[15.7335591,59.5542814],[15.7335806,59.5545478],[15.7340205,59.5550915],[15.7342383,59.5559316],[15.7353187,59.5566734],[15.7360482,59.5569724],[15.7378292,59.5572279],[15.7387827,59.557209],[15.7402968,59.5574725],[15.7416259,59.5579347],[15.7416808,59.558625],[15.7427333,59.5593961],[15.7472535,59.5608955],[15.7486224,59.5611253],[15.7515407,59.5612395],[15.7532177,59.5609969],[15.7535255,59.5608047],[15.7282483,59.5506442]],[[15.7424682,59.5535235],[15.740962,59.5531561],[15.7406456,59.5516182],[15.7427459,59.5507684],[15.7435721,59.550204],[15.7461506,59.5506777],[15.7458466,59.5532164],[15.7424682,59.5535235]],[[15.7332802,59.5457939],[15.7324004,59.5454785],[15.7325291,59.5451088],[15.7336235,59.5446846],[15.7349539,59.544652],[15.7352829,59.5448113],[15.7363915,59.545348],[15.7373357,59.5459136],[15.7364344,59.5458048],[15.7357907,59.5459353],[15.7342028,59.5453154],[15.7333016,59.5453154],[15.7332802,59.5457939]],[[15.7640934,59.5424984],[15.7636535,59.5428628],[15.7639432,59.5431673],[15.7643402,59.5432652],[15.7644796,59.5427595],[15.7640934,59.5424984]],[[15.7361984,59.5388436],[15.7352757,59.5388653],[15.7355332,59.5391373],[15.7362628,59.5393113],[15.7364774,59.5390394],[15.7361984,59.5388436]],[[15.7367563,59.538452],[15.7366061,59.5387348],[15.7373142,59.5388762],[15.7374215,59.5386151],[15.7367563,59.538452]],[[15.7382905,59.5390231],[15.7380545,59.5393059],[15.7383978,59.5394691],[15.7386339,59.539295],[15.7382905,59.5390231]],[[15.7359838,59.5505083],[15.7365739,59.5506605],[15.7370353,59.5507421],[15.7367885,59.5505083],[15.7362521,59.5503995],[15.7359838,59.5505083]],[[15.7368314,59.5495024],[15.7363486,59.5495948],[15.7367134,59.5497525],[15.7369602,59.5497308],[15.7368314,59.5495024]],[[15.7357371,59.5487575],[15.7358014,59.5490728],[15.7361555,59.5492631],[15.7362521,59.5490511],[15.7357371,59.5487575]],[[15.7369709,59.5475449],[15.7368958,59.547757],[15.7371104,59.5478113],[15.7371855,59.5476537],[15.7369709,59.5475449]],[[15.7365632,59.5467836],[15.7358122,59.5470446],[15.7360911,59.5473057],[15.736885,59.547012],[15.7365632,59.5467836]]],[[[15.7232809,59.5454894],[15.7228303,59.5459027],[15.7219555,59.5465075],[15.7217788,59.5473709],[15.7219264,59.5482232],[15.7225473,59.5490735],[15.7229524,59.5492454],[15.7235169,59.5494861],[15.7250692,59.5497129],[15.7264781,59.5500081],[15.7272871,59.5503924],[15.7282483,59.5506442],[15.7232809,59.5454894]]],[[[15.7228517,59.5427649],[15.7230663,59.5429226],[15.7225921,59.5431951],[15.723356,59.5444236],[15.7240963,59.5450435],[15.724016,59.5454153],[15.7232809,59.5454894],[15.7228517,59.5427649]]],[[[15.7264673,59.5410028],[15.7258129,59.5411279],[15.7253408,59.5411279],[15.7245254,59.5411823],[15.7240534,59.5412258],[15.723238,59.5410953],[15.7227981,59.5413182],[15.7225621,59.5415412],[15.7229056,59.5416201],[15.7230341,59.5423189],[15.7228517,59.5427649],[15.7264673,59.5410028]]],[[[15.7272184,59.5403066],[15.7274222,59.5405895],[15.7273579,59.5408723],[15.7267892,59.5411007],[15.7264673,59.5410028],[15.7272184,59.5403066]]],[[[15.7277731,59.5390409],[15.727787,59.5394147],[15.7277057,59.5395774],[15.7277731,59.5390409]]],[[[15.7274356,59.5387066],[15.7277655,59.5388381],[15.7277731,59.5390409],[15.7274356,59.5387066]]],[[[15.7281914,59.5383811],[15.7280122,59.53849],[15.7274356,59.5387066],[15.7281914,59.5383811]]],[[[15.7310486,59.5361729],[15.7313168,59.5366026],[15.7312095,59.5368529],[15.7306409,59.5366135],[15.7299006,59.5363905],[15.7293534,59.5365537],[15.7290489,59.5370272],[15.7287674,59.5373735],[15.7310486,59.5361729]]],[[[15.7373252,59.5354421],[15.7373249,59.5350143],[15.7371157,59.5346661],[15.7366651,59.5344458],[15.7358551,59.5343942],[15.7354152,59.5342718],[15.7346427,59.5343615],[15.7338959,59.5345645],[15.7328188,59.5347042],[15.7317187,59.5348906],[15.7309842,59.5349925],[15.7306301,59.5355202],[15.7310486,59.5361729],[15.7373252,59.5354421]]],[[[15.7399911,59.5366135],[15.7397819,59.5363225],[15.7390791,59.5361648],[15.7388216,59.5358574],[15.7381082,59.5355854],[15.7377702,59.5354739],[15.7373252,59.5354421],[15.7399911,59.5366135]]],[[[15.7396348,59.5373778],[15.7398306,59.5369342],[15.7398355,59.5367767],[15.7399911,59.5366135],[15.7396348,59.5373778]]],[[[15.740211,59.5378524],[15.7396799,59.5375763],[15.7396348,59.5373778],[15.740211,59.5378524]]],[[[15.7447171,59.5380495],[15.7439661,59.5380168],[15.7433009,59.5381256],[15.7428717,59.5378428],[15.7424855,59.5376361],[15.7416487,59.5375164],[15.7409191,59.5377666],[15.740211,59.5378524],[15.7447171,59.5380495]]],[[[15.7458544,59.5381365],[15.7453179,59.5383758],[15.7447171,59.5380495],[15.7458544,59.5381365]]],[[[15.7566653,59.5383037],[15.7565524,59.53838],[15.7565188,59.5386695],[15.7555961,59.5387892],[15.7545233,59.5390176],[15.7539868,59.5395724],[15.7538007,59.5406913],[15.7526135,59.5405623],[15.7517123,59.5406058],[15.7510182,59.5400949],[15.75109,59.53979],[15.750618,59.539431],[15.7498455,59.5392787],[15.7494163,59.5397138],[15.7486653,59.5396377],[15.7480461,59.5391429],[15.7474851,59.5385281],[15.7466054,59.538267],[15.7458544,59.5381365],[15.7566653,59.5383037]]],[[[15.758659,59.5387996],[15.7587091,59.5385803],[15.7585886,59.5384787],[15.7583957,59.5383324],[15.7580132,59.5381385],[15.7576775,59.538093],[15.7572922,59.5380971],[15.7566653,59.5383037],[15.758659,59.5387996]]],[[[15.7617185,59.5391619],[15.7609008,59.5391683],[15.7605148,59.5391683],[15.7602828,59.5392668],[15.7601157,59.5395524],[15.7597315,59.5395677],[15.7589043,59.5394509],[15.758659,59.5393304],[15.758521,59.5389776],[15.758659,59.5387996],[15.7617185,59.5391619]]],[[[15.7670861,59.5411267],[15.7670226,59.5408941],[15.7668658,59.540608],[15.7665256,59.5402801],[15.7659306,59.5400261],[15.7651646,59.5397577],[15.7643252,59.539689],[15.7635722,59.5394423],[15.762985,59.5393431],[15.762344,59.5392579],[15.7617185,59.5391619],[15.7670861,59.5411267]]],[[[15.7682827,59.5475232],[15.7680591,59.547297],[15.7676339,59.5468489],[15.7669258,59.5463377],[15.7669043,59.5457396],[15.7663254,59.5453564],[15.7657456,59.5451903],[15.7661641,59.5447988],[15.7669687,59.5444997],[15.7664752,59.5443746],[15.7664215,59.5438471],[15.7658744,59.5436459],[15.7656813,59.543287],[15.7649252,59.5427622],[15.7659173,59.5423624],[15.7666469,59.5419111],[15.7670102,59.5415813],[15.7682827,59.5475232]]],[[[15.7688355,59.5477243],[15.7684278,59.54767],[15.7682508,59.5476102],[15.7682827,59.5475232],[15.7688355,59.5477243]]],[[[15.771271,59.5493746],[15.7710618,59.5492251],[15.7708474,59.5490551],[15.7702786,59.5488526],[15.7694793,59.5485943],[15.7686362,59.5482716],[15.7688033,59.5479201],[15.7690448,59.5479554],[15.7688355,59.5477243],[15.771271,59.5493746]]],[[[15.7699084,59.5518431],[15.7696295,59.551351],[15.7701552,59.5510683],[15.770638,59.550878],[15.7712358,59.5510665],[15.7719684,59.5512586],[15.7726335,59.5510411],[15.7728696,59.5506714],[15.7727371,59.5502084],[15.7725138,59.5499734],[15.771727,59.549864],[15.7714319,59.5496465],[15.7717967,59.549516],[15.7716539,59.5494022],[15.771271,59.5493746],[15.7699084,59.5518431]]],[[[15.768949,59.5526767],[15.7690166,59.5525622],[15.7696509,59.5522155],[15.7699084,59.5518431],[15.768949,59.5526767]]],[[[15.7686531,59.5535421],[15.7686853,59.5531234],[15.768949,59.5526767],[15.7686531,59.5535421]]],[[[15.7685888,59.5551622],[15.7682295,59.5546913],[15.7680201,59.5541455],[15.768224,59.5537323],[15.7686531,59.5535421],[15.7685888,59.5551622]]],[[[15.7668867,59.5561127],[15.7670867,59.5559885],[15.7680474,59.5555782],[15.7685888,59.5551622],[15.7668867,59.5561127]]],[[[15.7577485,59.5593798],[15.7582676,59.5590163],[15.7588577,59.5588804],[15.7593083,59.5588533],[15.7604778,59.5585108],[15.761261,59.5582118],[15.7612196,59.5578677],[15.7618081,59.5576356],[15.7622158,59.557217],[15.7626986,59.5571409],[15.7630098,59.5573693],[15.7637393,59.5571953],[15.7643723,59.5571409],[15.7649761,59.5565721],[15.7655847,59.5566408],[15.766325,59.5564614],[15.7668867,59.5561127],[15.7577485,59.5593798]]],[[[15.7535255,59.5608047],[15.7532787,59.5605437],[15.7537401,59.5602448],[15.7543409,59.5603481],[15.7553014,59.5602251],[15.7559609,59.5599676],[15.7566261,59.5597828],[15.7577485,59.5593798],[15.7535255,59.5608047]]]]}},{"type":"Feature","properties":{},"geometry":{"type":"MultiPolygon","coordinates":[[[[15.783824,59.4047012],[15.7844034,59.4046684],[15.7848862,59.4046302],[15.783824,59.4047012]],[[15.7857123,59.4044609],[15.7861307,59.4043517],[15.786753,59.4041333],[15.7873001,59.4039476],[15.7878366,59.4037728],[15.7879117,59.4035817],[15.7857123,59.4044609]],[[15.7857123,59.4044609],[15.7854655,59.404379],[15.7854441,59.4042261],[15.7855835,59.404095],[15.7859376,59.4040022],[15.7864097,59.4038821],[15.7870748,59.4037619],[15.7875362,59.4036473],[15.7879117,59.4035817],[15.7857123,59.4044609]],[[15.7058039,59.4092933],[15.7051816,59.4092933],[15.7044092,59.4092114],[15.7040551,59.4092223],[15.7038298,59.409266],[15.7036903,59.4093752],[15.7037332,59.4095062],[15.7039693,59.4095881],[15.7042482,59.4097028],[15.7046988,59.4097355],[15.7050422,59.4097465],[15.7053748,59.4096482],[15.7058039,59.4092933]]],[[[15.7711189,59.4052627],[15.7716253,59.4055694],[15.7725158,59.4056786],[15.775198,59.4059407],[15.7774403,59.4059844],[15.7782557,59.4057769],[15.7778266,59.4056895],[15.7782343,59.4055039],[15.7804552,59.4049906],[15.783824,59.4047012],[15.7711189,59.4052627]]],[[[15.7684281,59.4041278],[15.7692864,59.4041606],[15.7700053,59.4042752],[15.7704022,59.4045974],[15.7705524,59.4049196],[15.7684281,59.4041278]]],[[[15.7586865,59.4060947],[15.7589546,59.406039],[15.759888,59.4059298],[15.7608965,59.4057332],[15.7617011,59.4055312],[15.7626346,59.4051762],[15.763525,59.4048759],[15.764158,59.4047121],[15.7648662,59.4045756],[15.7657781,59.404379],[15.7664647,59.4042534],[15.7675913,59.4041442],[15.7586865,59.4060947]]],[[[15.7530108,59.4074096],[15.7533189,59.4073251],[15.7537082,59.4072184],[15.7547167,59.4069782],[15.7558003,59.4067106],[15.7569054,59.4064649],[15.7576671,59.4063066],[15.7586865,59.4060947],[15.7530108,59.4074096]]],[[[15.7398572,59.4076662],[15.7404902,59.407759],[15.7412949,59.4077808],[15.7420674,59.40783],[15.7430652,59.4079119],[15.7446852,59.4080102],[15.7459083,59.4079938],[15.7470563,59.4079392],[15.7480326,59.4078737],[15.7489446,59.4077535],[15.7495454,59.4075297],[15.7498994,59.4073877],[15.7502535,59.407344],[15.7508865,59.4073277],[15.751498,59.407355],[15.7520452,59.4074532],[15.7525173,59.4074642],[15.7530108,59.4074096],[15.7398572,59.4076662]]],[[[15.735673,59.4077426],[15.7362416,59.4077262],[15.7368102,59.4076935],[15.7379797,59.4076334],[15.7386127,59.4075078],[15.7392135,59.407557],[15.7398572,59.4076662],[15.735673,59.4077426]]],[[[15.7309738,59.4082177],[15.7314673,59.408032],[15.7321647,59.4077808],[15.7329479,59.4077535],[15.7338598,59.40783],[15.7345572,59.4078409],[15.7352868,59.4077754],[15.735673,59.4077426],[15.7309738,59.4082177]]],[[[15.7270685,59.4086763],[15.7279053,59.4085726],[15.7285598,59.4085616],[15.729461,59.4084961],[15.7303086,59.4083815],[15.7309738,59.4082177],[15.7270685,59.4086763]]],[[[15.725545,59.4086818],[15.7264569,59.4086927],[15.7270685,59.4086763],[15.725545,59.4086818]]],[[[15.7195401,59.4102955],[15.7201689,59.4103302],[15.7209852,59.4103197],[15.7218006,59.4101614],[15.7221654,59.4099812],[15.7227555,59.4096919],[15.7229915,59.4094898],[15.7232061,59.4092824],[15.7239142,59.4090476],[15.7244399,59.4089056],[15.7251051,59.4087691],[15.725545,59.4086818],[15.7195401,59.4102955]]],[[[15.7136038,59.4087691],[15.7144192,59.4088947],[15.7154384,59.4091076],[15.7161894,59.4092005],[15.716801,59.4093588],[15.7168653,59.4095171],[15.7170692,59.40961],[15.7177451,59.4097956],[15.7185712,59.4101778],[15.7190862,59.4102761],[15.7195401,59.4102955],[15.7136038,59.4087691]]],[[[15.7123163,59.408791],[15.7130244,59.4087527],[15.7136038,59.4087691],[15.7123163,59.408791]]],[[[15.7095805,59.4090421],[15.7102886,59.409053],[15.7108786,59.4090476],[15.7115224,59.4089602],[15.7123163,59.408791],[15.7095805,59.4090421]]],[[[15.7056215,59.409064],[15.7060829,59.4090094],[15.7063833,59.4088838],[15.7067588,59.4088292],[15.7072523,59.4088838],[15.7076922,59.4088892],[15.7082715,59.408922],[15.7086093,59.4089318],[15.7056215,59.409064]]],[[[15.7044306,59.4089657],[15.7051709,59.4090367],[15.7056215,59.409064],[15.7044306,59.4089657]]],[[[15.6956973,59.408103],[15.6964913,59.4084579],[15.6972959,59.4087091],[15.6976071,59.4088838],[15.6981221,59.4089056],[15.6987658,59.4090148],[15.6993773,59.4090694],[15.7007292,59.4092714],[15.701051,59.409337],[15.7018342,59.4093479],[15.7027355,59.4092933],[15.7032075,59.4092005],[15.7037011,59.4091022],[15.7039907,59.4090039],[15.6956973,59.408103]]],[[[15.6926153,59.4074864],[15.6930748,59.4075904],[15.6934121,59.407688],[15.6939271,59.4077808],[15.6947747,59.4079501],[15.6956973,59.408103],[15.6926153,59.4074864]]],[[[15.7032504,59.4097711],[15.7005468,59.4097301],[15.7000854,59.4095663],[15.6982186,59.4094844],[15.694603,59.4084197],[15.693337,59.4084197],[15.6918779,59.4081303],[15.6894102,59.4074041],[15.6857724,59.4070001],[15.6857727,59.4065824],[15.6866315,59.4065687],[15.6910196,59.4072021],[15.6913522,59.4073986],[15.6926153,59.4074864],[15.7032504,59.4097711]]],[[[15.7032504,59.4097711],[15.7036045,59.4098857],[15.7039961,59.4099785],[15.7044038,59.4099812],[15.7045092,59.410085],[15.7047111,59.410096],[15.7049259,59.4101136],[15.7052645,59.4100655],[15.705407,59.4099866],[15.7056537,59.4098502],[15.7059541,59.4097301],[15.7063404,59.409397],[15.70663,59.4092987],[15.7032504,59.4097711]]],[[[15.7221868,59.4104617],[15.7211569,59.410691],[15.7189789,59.4106692],[15.7164255,59.4097519],[15.7135823,59.4091404],[15.7129708,59.4091186],[15.7108679,59.4094735],[15.7078531,59.4092332],[15.70663,59.4092987],[15.7221868,59.4104617]]],[[[15.7279055,59.4089738],[15.7272616,59.4089875],[15.7262638,59.4090749],[15.7255021,59.4091677],[15.72503,59.4091841],[15.7239356,59.4094243],[15.7234743,59.409599],[15.7232597,59.4099266],[15.7227018,59.410287],[15.7221868,59.4104617],[15.7279055,59.4089738]]],[[[15.7762173,59.4064485],[15.774211,59.4065304],[15.7723549,59.4061537],[15.7708958,59.4060281],[15.7702413,59.4056568],[15.7696619,59.4048923],[15.7690504,59.4046848],[15.7681063,59.4046193],[15.7647374,59.405078],[15.7605317,59.4064431],[15.757592,59.4068362],[15.7539549,59.4078464],[15.7516375,59.408174],[15.7491269,59.4081467],[15.7478824,59.4083978],[15.7457366,59.4085343],[15.7406941,59.4082067],[15.7375398,59.4084197],[15.7353833,59.4081685],[15.7339671,59.4081521],[15.7326475,59.4079337],[15.7310381,59.408578],[15.7301798,59.40878],[15.7279055,59.4089738],[15.7762173,59.4064485]]],[[[15.7762173,59.4064485],[15.7765713,59.4065578],[15.7768288,59.4070765],[15.7764533,59.4077262],[15.7766035,59.4082668],[15.7780841,59.408922],[15.7793608,59.4091076],[15.7818284,59.4087036],[15.7846823,59.4089493],[15.7845858,59.4086108],[15.7837382,59.4086272],[15.7838347,59.4085289],[15.7842424,59.4085507],[15.7840922,59.4083105],[15.7836738,59.4082777],[15.7809916,59.4084361],[15.7794037,59.4087582],[15.7784703,59.4086599],[15.7772687,59.4081794],[15.7770327,59.4078355],[15.7770005,59.4076553],[15.7774725,59.4071693],[15.7770648,59.4063503],[15.7762173,59.4064485]]],[[[15.7959154,59.4016212],[15.7952073,59.4015775],[15.7947138,59.401796],[15.7931152,59.4028227],[15.7930293,59.4031449],[15.7918921,59.4030466],[15.7917204,59.4031722],[15.7902828,59.4032431],[15.7884052,59.4035708],[15.7880512,59.4039367],[15.7857981,59.4047885],[15.7841995,59.4050616],[15.7826116,59.405067],[15.7770648,59.4063503],[15.7959154,59.4016212]]],[[[15.7959154,59.4016212],[15.7963875,59.4017304],[15.7965269,59.4018287],[15.796366,59.4020526],[15.7964948,59.4021728],[15.797117,59.4023803],[15.7971278,59.4022492],[15.7965162,59.4020253],[15.7967201,59.4018451],[15.7965699,59.4016977],[15.7961944,59.4015393],[15.7959154,59.4016212]]],[[[15.7878902,59.4033906],[15.7914415,59.4026042],[15.7919135,59.4025605],[15.7920423,59.4027353],[15.7923427,59.4028117],[15.792686,59.4027462],[15.7941022,59.4020963],[15.7947996,59.4015939],[15.79613,59.4011625],[15.7970634,59.4012171],[15.7975569,59.4015775],[15.797117,59.4017468],[15.7970419,59.4014847],[15.7965377,59.4014519],[15.7878902,59.4033906]]],[[[15.7878902,59.4033906],[15.7870319,59.4036418],[15.7863667,59.4037838],[15.7856157,59.4039476],[15.7852724,59.4041278],[15.7850256,59.4043954],[15.7848862,59.4046302],[15.7878902,59.4033906]]]]}},{"type":"Feature","properties":{},"geometry":{"type":"MultiPolygon","coordinates":[[[[15.5673802,59.4270173],[15.5669081,59.4271046],[15.5664839,59.4272746],[15.5660043,59.427406],[15.5659094,59.4274891],[15.5655511,59.427414],[15.5655247,59.4273363],[15.5650334,59.4271104],[15.5652793,59.4268739],[15.565678,59.4267598],[15.5657403,59.4266268],[15.5661929,59.4265434],[15.5662963,59.4264185],[15.5678729,59.4261358],[15.5686998,59.4260405],[15.5690002,59.4259531],[15.5692363,59.4258549],[15.5696901,59.4256055],[15.5700625,59.425369],[15.5673802,59.4270173]],[[15.6129086,59.4105567],[15.6139118,59.4102455],[15.6140941,59.4100845],[15.6146681,59.410221],[15.6156713,59.4099125],[15.6181282,59.4087877],[15.6277359,59.405689],[15.6294739,59.4052795],[15.631448,59.4050802],[15.6303322,59.4046761],[15.6299245,59.4041246],[15.6298226,59.4036249],[15.6295168,59.4036659],[15.628916,59.4034256],[15.628798,59.4033054],[15.6289804,59.4031143],[15.6288731,59.4029669],[15.6282508,59.4027812],[15.627017,59.4027321],[15.624603,59.4029942],[15.6238735,59.4028194],[15.6234014,59.4033491],[15.6230474,59.4033601],[15.6225538,59.4035894],[15.6222534,59.4040645],[15.62235,59.404343],[15.6225967,59.4043867],[15.6235194,59.40413],[15.6232834,59.4043703],[15.6220281,59.4048727],[15.6204939,59.4059102],[15.6189168,59.406762],[15.6188417,59.4070132],[15.6189704,59.4073845],[15.6192708,59.407592],[15.619303,59.4078541],[15.619067,59.4081489],[15.6186485,59.40834],[15.6190777,59.4079196],[15.618552,59.4071169],[15.618552,59.4068385],[15.6169534,59.4079414],[15.6160307,59.4082417],[15.6156015,59.4086512],[15.6155264,59.4089188],[15.615623,59.4091918],[15.6153548,59.4094539],[15.6127369,59.410584],[15.6129086,59.4105567]],[[15.5698585,59.4258276],[15.5701193,59.4260039],[15.5696686,59.4263968],[15.5694723,59.4263733],[15.5692073,59.4265824],[15.5679306,59.4269644],[15.5676377,59.4268263],[15.5684563,59.4263422],[15.5689788,59.4262751],[15.5698585,59.4258276]]],[[[15.5673802,59.4270173],[15.5677879,59.4270773],[15.5683919,59.4269425],[15.568703,59.4268443],[15.5690217,59.4267663],[15.569365,59.4266953],[15.5698693,59.4265043],[15.5699766,59.4263188],[15.5699476,59.4262713],[15.5702695,59.4260257],[15.5704518,59.4259875],[15.5706692,59.4257477],[15.5673802,59.4270173]]],[[[15.5706692,59.4257477],[15.5715645,59.4252053],[15.5728251,59.4246923],[15.5729378,59.4244112],[15.5737693,59.4239364],[15.5748904,59.4235517],[15.5769075,59.4224847],[15.5786616,59.4218925],[15.5790961,59.4215214],[15.5800403,59.4210765],[15.5802071,59.421106],[15.579617,59.4216354],[15.5800081,59.4214668],[15.5802763,59.4212294],[15.5806255,59.4211469],[15.5807162,59.4210056],[15.5805928,59.4207818],[15.5841119,59.4189178],[15.5865527,59.4181727],[15.5897606,59.4174413],[15.5912525,59.4171733],[15.5931828,59.4170619],[15.6018893,59.4154625],[15.6042174,59.4148129],[15.6064866,59.4140786],[15.6094907,59.4126783],[15.6097857,59.4124299],[15.6123499,59.4113216],[15.6163679,59.4098775],[15.6193505,59.4085835],[15.6263347,59.4062684],[15.6298323,59.4054166],[15.631094,59.405457],[15.6328042,59.4052637],[15.6353791,59.4056404],[15.6382973,59.4056951],[15.6415439,59.4052003],[15.6429,59.4048705],[15.6443548,59.4042775],[15.6468375,59.4037074],[15.6486464,59.4035239],[15.6499016,59.4035403],[15.654525,59.4042644],[15.6593162,59.404272],[15.6611186,59.4043539],[15.6632153,59.4046275],[15.6658707,59.4052282],[15.6696534,59.4063579],[15.6720138,59.4065218],[15.6752753,59.4065463],[15.6785852,59.4062433],[15.6811432,59.4066397],[15.6844852,59.4067626],[15.6857724,59.4070001],[15.6857727,59.4065824],[15.6849519,59.4065851],[15.6835035,59.4063094],[15.6804458,59.4061728],[15.6795178,59.4058015],[15.678005,59.4057824],[15.6742446,59.40608],[15.6702113,59.4059757],[15.666365,59.4048235],[15.6629264,59.4040427],[15.6597453,59.4038461],[15.655781,59.4037833],[15.6539832,59.4035381],[15.6537533,59.4035485],[15.6541602,59.4037538],[15.6534306,59.4037429],[15.6532329,59.4036986],[15.653436,59.4035517],[15.6511186,59.403093],[15.6495521,59.4030138],[15.647165,59.4030603],[15.6449495,59.4034971],[15.6446383,59.4037374],[15.6438291,59.4037942],[15.6405515,59.4048099],[15.639319,59.4050263],[15.6372325,59.4052036],[15.6356044,59.4051053],[15.6318815,59.4047558],[15.6306112,59.4045287],[15.6303365,59.404319],[15.6302722,59.4030903],[15.6305511,59.4029101],[15.6309803,59.4027353],[15.6318815,59.4026862],[15.6339521,59.4030029],[15.6344457,59.4027462],[15.6341131,59.4022275],[15.6330295,59.4020691],[15.6323106,59.4016868],[15.6297357,59.4016049],[15.6292379,59.4017381],[15.6263883,59.4017414],[15.6247039,59.4020745],[15.6232019,59.4025933],[15.6229723,59.4024645],[15.6226976,59.4026206],[15.6226332,59.4029756],[15.6221075,59.4032377],[15.6222255,59.4044227],[15.617945,59.4070465],[15.6170714,59.4077503],[15.6156597,59.4083324],[15.6154398,59.40866],[15.6153862,59.4092988],[15.6152582,59.4093965],[15.6147532,59.4095117],[15.6124634,59.4106687],[15.6109774,59.41116],[15.6107245,59.411409],[15.6100386,59.4116241],[15.6070499,59.4132242],[15.6000922,59.4152387],[15.5984891,59.4154401],[15.5930165,59.416718],[15.589251,59.4171029],[15.5865312,59.4177169],[15.5840421,59.4185248],[15.5800194,59.4207021],[15.5788923,59.4210956],[15.5780554,59.4217479],[15.5760652,59.4224765],[15.5747515,59.4231582],[15.5738181,59.4234283],[15.5727339,59.4240456],[15.5721975,59.4244249],[15.5722243,59.4245122],[15.5719776,59.4244849],[15.5700625,59.425369],[15.5706692,59.4257477]]]]}},{"type":"Feature","properties":{},"geometry":{"type":"MultiPolygon","coordinates":[[[[15.9868032,59.5175857],[15.9861776,59.5177256],[15.985353,59.5181649],[15.9839422,59.5184915],[15.9819685,59.519322],[15.981816,59.5196394],[15.981964,59.5206007],[15.9826041,59.5213243],[15.9826297,59.5215844],[15.9823475,59.5218715],[15.9805257,59.5225082],[15.9804837,59.5228771],[15.9806093,59.5232719],[15.9804366,59.5239044],[15.9783372,59.5254946],[15.9763346,59.5258372],[15.9747859,59.5264752],[15.9747927,59.5266493],[15.9751089,59.5269217],[15.9764483,59.5272717],[15.9774306,59.5278976],[15.977808,59.528242],[15.977805,59.5286307],[15.976929,59.5294104],[15.9762439,59.5297893],[15.975601,59.5305071],[15.9756602,59.531409],[15.9758999,59.5319057],[15.9749824,59.5325164],[15.9746598,59.5330957],[15.9731682,59.5335879],[15.9717861,59.5336929],[15.9712458,59.5339788],[15.9716993,59.5336444],[15.9729661,59.5335246],[15.974581,59.5330424],[15.9748995,59.5324499],[15.975763,59.5319029],[15.9755409,59.5314446],[15.9754938,59.5305052],[15.9761734,59.5297591],[15.9775102,59.5288287],[15.9777076,59.5283453],[15.9765277,59.5274096],[15.9749187,59.5269451],[15.9745709,59.5265819],[15.9748338,59.5263142],[15.9762663,59.5257981],[15.9782489,59.5254446],[15.980373,59.5237451],[15.9803438,59.5225097],[15.9822413,59.5218419],[15.9825104,59.5215712],[15.9817905,59.5206117],[15.9815964,59.5197308],[15.9817408,59.5193407],[15.9838629,59.5183936],[15.9851085,59.5180943],[15.9861499,59.5175822],[15.9874754,59.5172918],[15.9879706,59.5168847],[15.9887241,59.5165896],[15.9898804,59.516367],[15.991983,59.5153813],[15.994817,59.5136637],[15.9970888,59.5117872],[15.9976157,59.5114786],[15.9984244,59.5112786],[15.9992474,59.5106451],[16.0014635,59.5082215],[16.0008089,59.5074957],[16.0011374,59.5074271],[16.0013603,59.5078847],[16.0016775,59.5081314],[16.0014405,59.5086342],[15.998989,59.5111302],[15.9974655,59.5118991],[15.9934243,59.5148124],[15.9919749,59.5156276],[15.9902304,59.5163593],[15.9901913,59.516478],[15.9868032,59.5175857]],[[15.9894349,59.516776],[15.9895663,59.516576],[15.9898667,59.5165352],[15.9900009,59.516663],[15.9899714,59.5167433],[15.9896173,59.5169202],[15.9894349,59.516776]]],[[[15.9901913,59.516478],[15.9905094,59.5166437],[15.9908527,59.5167743],[15.990798,59.5168584],[15.9908431,59.516923],[15.9910615,59.5170499],[15.9914162,59.5171432],[15.9917666,59.5172641],[15.9901913,59.516478]]],[[[15.9917666,59.5172641],[15.992224,59.5175753],[15.9922873,59.5183873],[15.9926242,59.5187908],[15.9924882,59.5191661],[15.9919862,59.519487],[15.9917939,59.5197661],[15.9924021,59.5210096],[15.9922054,59.5212655],[15.9915494,59.5215462],[15.9911364,59.5223211],[15.9912162,59.5225742],[15.9918786,59.5231368],[15.9921645,59.5236189],[15.992023,59.5244549],[15.9925108,59.5251621],[15.9921704,59.5254979],[15.9914365,59.5256066],[15.9912536,59.5258205],[15.9914387,59.5261059],[15.99163,59.5269428],[15.9913185,59.5275476],[15.99089,59.5277176],[15.9915372,59.5278785],[15.9915026,59.5282145],[15.9916266,59.5284351],[15.9910978,59.5286406],[15.9911482,59.5287617],[15.9910119,59.5289496],[15.9900497,59.5290484],[15.9900498,59.5295707],[15.9895932,59.530018],[15.989503,59.5300002],[15.9899146,59.5295693],[15.9899241,59.5289972],[15.990292,59.5288662],[15.9909231,59.5289038],[15.9909543,59.5286264],[15.9915295,59.5284145],[15.9914787,59.5278957],[15.9907843,59.527686],[15.9912318,59.5275113],[15.9914062,59.5272224],[15.9913871,59.5267945],[15.9910752,59.525835],[15.9911782,59.5256283],[15.9920892,59.5254626],[15.9923419,59.5251869],[15.9918741,59.5242523],[15.9919244,59.5237665],[15.9918163,59.523455],[15.9915482,59.5230566],[15.990979,59.5225793],[15.9909368,59.5223287],[15.991351,59.5214918],[15.9919709,59.5212288],[15.9921812,59.521003],[15.9918933,59.5201895],[15.9916194,59.5198431],[15.991727,59.519478],[15.9923482,59.5189987],[15.9924266,59.5187215],[15.9921023,59.5184174],[15.9920635,59.517586],[15.9908233,59.5170928],[15.9903914,59.5167689],[15.9901607,59.5167525],[15.9894901,59.5170328],[15.9890115,59.51665],[15.987395,59.517457],[15.9868032,59.5175857],[15.9917666,59.5172641]]]]}},{"type":"Feature","properties":{},"geometry":{"type":"MultiPolygon","coordinates":[[[[15.7971558,59.3718572],[15.7975191,59.3722022],[15.7976854,59.3722131],[15.7976183,59.3723962],[15.7977149,59.3724468],[15.7987745,59.3722486],[15.7971558,59.3718572]],[[15.7771098,59.3693982],[15.7772427,59.3694191],[15.7773209,59.3694759],[15.7773111,59.3695606],[15.777143,59.3695566],[15.7770316,59.3695825],[15.7769534,59.3694789],[15.7769964,59.3694182],[15.7771098,59.3693982]],[[15.7793738,59.3676559],[15.7791664,59.3677602],[15.7790088,59.367832],[15.7789231,59.3677475],[15.7788927,59.3675714],[15.7789895,59.3674573],[15.7791194,59.3674038],[15.7792217,59.3674137],[15.7793268,59.3674925],[15.779371,59.3675855],[15.7793738,59.3676559]]],[[[15.7987745,59.3722486],[15.7992297,59.3719204],[15.7992516,59.3717191],[15.79908,59.371525],[15.7993589,59.371331],[15.7993589,59.3712107],[15.7990204,59.3710431],[15.7991229,59.3707762],[15.7990746,59.3705357],[15.7988815,59.3703772],[15.7990097,59.3703161],[15.7988547,59.3702378],[15.7988815,59.3701366],[15.7990312,59.370051],[15.7993643,59.3701804],[15.7994126,59.3700656],[15.7987745,59.3722486]]],[[[15.7994126,59.3700656],[15.7993589,59.3699863],[15.7996111,59.3697649],[15.7994609,59.3694424],[15.7996432,59.3692812],[15.7993691,59.3691955],[15.7994067,59.369037],[15.7994126,59.3700656]]],[[[15.7994067,59.369037],[15.7991605,59.3690379],[15.7989244,59.3686443],[15.7992028,59.3687664],[15.7993482,59.3687591],[15.799316,59.368576],[15.7994281,59.3685586],[15.8000182,59.3686707],[15.7994067,59.369037]]],[[[15.8000182,59.3686707],[15.8007645,59.3685104],[15.8015149,59.3679901],[15.8013224,59.3674882],[15.8014023,59.3668722],[15.8021484,59.3660615],[15.8020304,59.3657963],[15.8021484,59.3655476],[15.8025078,59.3655257],[15.8028083,59.365318],[15.8035432,59.3653945],[15.8028619,59.3652715],[15.8028243,59.3650993],[15.8036344,59.3648122],[15.8030443,59.3648861],[15.8021055,59.3647439],[15.8019714,59.3646728],[15.8020197,59.3645936],[15.8000182,59.3686707]]],[[[15.8020197,59.3645936],[15.8019124,59.3645389],[15.8017515,59.3646018],[15.8020197,59.3645936]]],[[[15.8017515,59.3646018],[15.8014398,59.3647702],[15.8007483,59.3647603],[15.7995628,59.3651895],[15.7994603,59.365254],[15.7995193,59.3653661],[15.7990955,59.3656257],[15.7977442,59.3659221],[15.7967996,59.3665852],[15.7961939,59.3666681],[15.7958452,59.3664276],[15.7959686,59.3663675],[15.7959579,59.3661133],[15.8017515,59.3646018]]],[[[15.7959579,59.3661133],[15.7959257,59.3659986],[15.7958828,59.3658646],[15.7958399,59.3657826],[15.7958452,59.3656733],[15.7959954,59.365564],[15.7959954,59.3654355],[15.7959579,59.3661133]]],[[[15.7959954,59.3654355],[15.7959311,59.3653371],[15.7958131,59.3652277],[15.7956199,59.3651567],[15.7955717,59.3651321],[15.7954322,59.3650637],[15.7952766,59.3649325],[15.7949226,59.3648997],[15.7944505,59.3648779],[15.7942359,59.3648642],[15.7939672,59.3648494],[15.7937049,59.3647767],[15.7959954,59.3654355]]],[[[15.7937049,59.3647767],[15.7915108,59.3650118],[15.791264,59.3648615],[15.791382,59.3647658],[15.791323,59.3643885],[15.7919185,59.3643667],[15.7924818,59.3638008],[15.7937049,59.3647767]]],[[[15.7927441,59.3624712],[15.7931149,59.3625296],[15.7933831,59.3627537],[15.7934368,59.3630271],[15.7929325,59.3635738],[15.7924818,59.3638008],[15.7927441,59.3624712]]],[[[15.7927441,59.3624712],[15.7924281,59.3625023],[15.7918595,59.3622289],[15.7911728,59.3621114],[15.7901643,59.3620567],[15.7898366,59.3623645],[15.7888554,59.3627374],[15.7883726,59.3625707],[15.7878791,59.3619884],[15.7867955,59.3616795],[15.7927441,59.3624712]]],[[[15.7867955,59.3616795],[15.786479,59.3616904],[15.7862215,59.3617259],[15.7858567,59.3617915],[15.7856314,59.3619064],[15.7855611,59.3619846],[15.7857113,59.3620912],[15.7856255,59.3622798],[15.7854544,59.3623711],[15.7867955,59.3616795]]],[[[15.7854544,59.3623711],[15.7856148,59.3627883],[15.7862478,59.3633514],[15.7861351,59.3639364],[15.7863604,59.3642316],[15.7857489,59.3647592],[15.7849394,59.3648997],[15.7834212,59.3646428],[15.7829438,59.3649353],[15.7830077,59.3650353],[15.7828955,59.3651129],[15.7825629,59.3651239],[15.7825678,59.3655027],[15.7822947,59.3656296],[15.7822191,59.3659374],[15.7812111,59.3661297],[15.7807712,59.3659685],[15.7810234,59.3657334],[15.7809697,59.3655913],[15.7807551,59.3652496],[15.7803153,59.3650883],[15.7790439,59.3650665],[15.778818,59.3652649],[15.7786255,59.3651895],[15.7778047,59.365389],[15.7772629,59.3657826],[15.7765494,59.365512],[15.7761632,59.3654956],[15.7754926,59.3656924],[15.7747738,59.3662636],[15.7736902,59.3665424],[15.773304,59.3668923],[15.7727777,59.3671373],[15.7726227,59.3676904],[15.7721823,59.3680339],[15.7713835,59.3680785],[15.7714688,59.3683072],[15.7712601,59.3684995],[15.7699458,59.369249],[15.7700746,59.369385],[15.7700156,59.3696037],[15.7854544,59.3623711]]],[[[15.7700156,59.3696037],[15.7700853,59.3696939],[15.76986,59.3700137],[15.7693504,59.3715141],[15.7695757,59.3720525],[15.7695705,59.3723696],[15.7693076,59.3733616],[15.7695544,59.3738863],[15.7694524,59.3740093],[15.7698923,59.3742634],[15.7704498,59.3752744],[15.7710666,59.3756597],[15.7700156,59.3696037]]],[[[15.7710666,59.3756597],[15.7711539,59.375805],[15.7710111,59.3759107],[15.7710666,59.3756597]]],[[[15.7710111,59.3759107],[15.7708687,59.3760806],[15.7705894,59.3764749],[15.7706709,59.3769017],[15.770828,59.377121],[15.7711888,59.377373],[15.7716892,59.3774293],[15.7723667,59.3773749],[15.7725562,59.3774678],[15.7710111,59.3759107]]],[[[15.7725562,59.3774678],[15.7732719,59.3773285],[15.7739903,59.3767154],[15.7749969,59.3754762],[15.7752108,59.3745414],[15.7754248,59.3743528],[15.7762776,59.3740839],[15.7774472,59.3732331],[15.7774454,59.3722247],[15.777306,59.37173],[15.7774293,59.3714076],[15.777719,59.3713037],[15.7784015,59.3713359],[15.7725562,59.3774678]]],[[[15.7784015,59.3713359],[15.7789834,59.3709357],[15.7790287,59.3703353],[15.779436,59.3701337],[15.7811933,59.3698195],[15.7823047,59.3694074],[15.783259,59.3683934],[15.7860113,59.3682748],[15.7866165,59.3681325],[15.7868492,59.367925],[15.7868899,59.36767],[15.7784015,59.3713359]]],[[[15.7868899,59.36767],[15.7868027,59.3673972],[15.7865757,59.3671393],[15.7867328,59.3669792],[15.7867968,59.3667361],[15.7872973,59.3666353],[15.7877395,59.3665937],[15.7879257,59.3668813],[15.7882865,59.3671185],[15.7886414,59.3673706],[15.7868899,59.36767]]],[[[15.7886414,59.3673706],[15.7900035,59.3678237],[15.7901485,59.368177],[15.7906097,59.3684305],[15.7900205,59.3694696],[15.7901718,59.3698372],[15.7911959,59.3706051],[15.7926643,59.3705856],[15.7932544,59.3702604],[15.7939893,59.3701975],[15.7886414,59.3673706]]],[[[15.7939893,59.3701975],[15.7945472,59.3700397],[15.7958668,59.3703321],[15.7965428,59.3709853],[15.7971558,59.3718572],[15.7939893,59.3701975]]]]}},{"type":"Feature","properties":{},"geometry":{"type":"MultiPolygon","coordinates":[[[[15.7224373,59.3719583],[15.7226305,59.3717178],[15.7230703,59.3715483],[15.7244544,59.3714964],[15.7250015,59.3717014],[15.7252858,59.371961],[15.7251678,59.3722425],[15.7249264,59.3722807],[15.7254951,59.3733821],[15.7251786,59.3749999],[15.7253234,59.3756681],[15.7257686,59.3762201],[15.7255863,59.3764551],[15.7253475,59.3775768],[15.7253797,59.3785536],[15.725141,59.3792108],[15.7258465,59.379998],[15.725487,59.380622],[15.7262166,59.3822545],[15.7264124,59.3831916],[15.7268254,59.3841533],[15.7268415,59.3846505],[15.7282121,59.3857474],[15.7284348,59.3861818],[15.7289471,59.3866298],[15.7224373,59.3719583]],[[15.7218137,59.3876153],[15.7219559,59.3876508],[15.722098,59.3876467],[15.7222536,59.3876234],[15.7224065,59.3875866],[15.7225004,59.3875415],[15.7225379,59.3874705],[15.7225111,59.3873981],[15.7224575,59.3873516],[15.7223904,59.3873134],[15.7222509,59.3872792],[15.7220954,59.387323],[15.7219264,59.387368],[15.7217735,59.3874295],[15.7217064,59.387506],[15.7217118,59.3875511],[15.7218137,59.3876153]]],[[[15.718693,59.3747021],[15.7189344,59.3742238],[15.7188807,59.3739232],[15.7189505,59.3738358],[15.7193152,59.3739177],[15.7194547,59.3737866],[15.7193796,59.3734832],[15.7195781,59.3735051],[15.7200555,59.3739779],[15.720254,59.3740325],[15.7205008,59.373915],[15.7211231,59.3734422],[15.7220189,59.3721878],[15.7224373,59.3719583],[15.718693,59.3747021]]],[[[15.7188217,59.3751721],[15.718988,59.3751202],[15.7191597,59.3750109],[15.7192241,59.3749917],[15.7191597,59.3749398],[15.7189076,59.3747485],[15.718693,59.3747021],[15.7188217,59.3751721]]],[[[15.7162951,59.3787845],[15.7162844,59.3785113],[15.7169013,59.3782654],[15.7167457,59.3779976],[15.7166706,59.377268],[15.7171427,59.3769292],[15.7177649,59.3770439],[15.7186018,59.3763772],[15.7190309,59.3758033],[15.7190202,59.3756694],[15.7185428,59.3752923],[15.7188217,59.3751721],[15.7162951,59.3787845]]],[[[15.7171748,59.379301],[15.7168101,59.3790468],[15.7166652,59.3790195],[15.7163702,59.3788856],[15.7162951,59.3787845],[15.7171748,59.379301]]],[[[15.715426,59.3826343],[15.7152651,59.3824267],[15.7153188,59.3822463],[15.7160912,59.3815524],[15.717368,59.381148],[15.7178776,59.3811808],[15.7182853,59.3810141],[15.7181297,59.3806097],[15.7183711,59.3800442],[15.7171748,59.379301],[15.715426,59.3826343]]],[[[15.7293413,59.3883603],[15.7290034,59.3887018],[15.7298322,59.3888424],[15.7295667,59.3890487],[15.7285286,59.3891129],[15.7278903,59.3890186],[15.7277964,59.3888903],[15.7277374,59.3889886],[15.7275657,59.3888739],[15.726989,59.3889381],[15.7267557,59.3887154],[15.7266699,59.3888247],[15.7267423,59.3890063],[15.7265009,59.3891293],[15.7264821,59.3893847],[15.7270427,59.3896278],[15.7267477,59.3897753],[15.7264285,59.3896756],[15.7253207,59.389707],[15.7245456,59.3894871],[15.7241808,59.3896496],[15.7241808,59.3898873],[15.7239126,59.3900102],[15.7225044,59.3901905],[15.7225688,59.390409],[15.7221959,59.3905032],[15.7220136,59.3906849],[15.7215039,59.3905647],[15.721461,59.3900921],[15.7211472,59.390032],[15.7205839,59.3903489],[15.7203372,59.3906726],[15.7202889,59.3911096],[15.7205088,59.3911615],[15.7203479,59.3912762],[15.7206081,59.3914019],[15.7193863,59.3924555],[15.7187319,59.3925921],[15.7174712,59.3924282],[15.7172781,59.3923408],[15.7171923,59.3921277],[15.7167041,59.3919912],[15.7165378,59.3913766],[15.7158673,59.3912182],[15.715249,59.3903257],[15.7151471,59.3899911],[15.7149647,59.389875],[15.7150827,59.3896059],[15.7158203,59.3888384],[15.7167296,59.3881309],[15.7170381,59.3875463],[15.7166947,59.3863757],[15.7164507,59.3862022],[15.7163621,59.3859564],[15.716279,59.3852543],[15.7165901,59.3849579],[15.7175919,59.3848425],[15.7171333,59.3842892],[15.7173639,59.3840953],[15.7172432,59.3840106],[15.7173371,59.3834095],[15.716806,59.3835379],[15.7167444,59.3834478],[15.7168651,59.3833713],[15.7165325,59.3833071],[15.715426,59.3826343],[15.7293413,59.3883603]]],[[[15.7289471,59.3866298],[15.7290704,59.3867213],[15.729167,59.3868237],[15.7294004,59.3870928],[15.7294594,59.387198],[15.7296874,59.3874916],[15.7299153,59.3877348],[15.7301406,59.3878167],[15.7301594,59.38787],[15.7301433,59.3879383],[15.7300977,59.3880134],[15.7299878,59.3880885],[15.7298402,59.3881486],[15.7296471,59.3882237],[15.729505,59.3882797],[15.7293413,59.3883603],[15.7289471,59.3866298]]]]}},{"type":"Feature","properties":{},"geometry":{"type":"MultiPolygon","coordinates":[[[[15.5794609,59.1715533],[15.5790126,59.1710016],[15.5780245,59.1702754],[15.5765614,59.1695452],[15.5750524,59.1690231],[15.5738805,59.1687561],[15.5725936,59.1685363],[15.5701424,59.1683007],[15.569381,59.1682163],[15.5794609,59.1715533]]],[[[15.569381,59.1682163],[15.5354244,59.1645218],[15.5334234,59.1644118],[15.5319482,59.1644723],[15.5300278,59.1647184],[15.52894,59.1650029],[15.5269072,59.1657569],[15.5232947,59.1677001],[15.5203839,59.1685559],[15.4663155,59.1744023],[15.569381,59.1682163]]],[[[15.4663155,59.1744023],[15.4516266,59.1759909],[15.4511348,59.1760524],[15.4663155,59.1744023]]],[[[15.4511348,59.1760524],[15.4498501,59.1762129],[15.4478785,59.176335],[15.4461236,59.1763572],[15.4437188,59.176113],[15.433471,59.1749473],[15.4284013,59.1743922],[15.4277774,59.1743799],[15.4511348,59.1760524]]],[[[15.4277774,59.1743799],[15.4221834,59.1742701],[15.4211079,59.1742503],[15.4277774,59.1743799]]],[[[15.4211079,59.1742503],[15.4012769,59.1739444],[15.3799212,59.1752475],[15.3776845,59.1756086],[15.3727056,59.1772413],[15.3697642,59.1780498],[15.3672058,59.1784266],[15.2954501,59.1875399],[15.2699662,59.1897848],[15.2638024,59.1899971],[15.2622746,59.1898293],[15.4211079,59.1742503]]],[[[15.2622746,59.1898293],[15.2623009,59.1897782],[15.2623191,59.1897263],[15.2622746,59.1898293]]],[[[15.2623191,59.1897263],[15.2641815,59.1898792],[15.2689669,59.1897141],[15.2799918,59.1887459],[15.2960405,59.1872431],[15.3133891,59.1850723],[15.3685337,59.1778715],[15.3698358,59.1776596],[15.3721399,59.1770437],[15.376912,59.1754149],[15.3796044,59.1749694],[15.4018487,59.1735956],[15.4033424,59.1735917],[15.4275082,59.1740375],[15.4450028,59.1758839],[15.4499434,59.1758565],[15.5192679,59.1683734],[15.5222706,59.1676943],[15.5267593,59.1655075],[15.5289737,59.1645864],[15.5319373,59.1642079],[15.5333322,59.1641533],[15.5355692,59.164255],[15.5730632,59.1682753],[15.5749782,59.1686207],[15.5775136,59.1695433],[15.5788464,59.1702421],[15.5795741,59.1707838],[15.5805852,59.172142],[15.5832432,59.1763497],[15.584147,59.1792894],[15.5843921,59.1797368],[15.5847445,59.1799722],[15.5859241,59.1803215],[15.5875327,59.1802823],[15.5892025,59.1799762],[15.589335,59.1799222],[15.5890858,59.1797113],[15.5892456,59.1795489],[15.5894785,59.1795781],[15.5894731,59.1798972],[15.5901854,59.1798833],[15.5971664,59.1789162],[15.5992246,59.1787525],[15.6036934,59.1786583],[15.6038664,59.1787525],[15.6065858,59.1787804],[15.6063337,59.1790401],[15.5995985,59.1790323],[15.5967299,59.1793188],[15.5874116,59.1806079],[15.5854277,59.1806197],[15.584229,59.18019],[15.5836277,59.1795974],[15.5829191,59.1770954],[15.5823293,59.1757296],[15.5818715,59.1751061],[15.2623191,59.1897263]]],[[[15.5818715,59.1751061],[15.5817548,59.1749249],[15.5812545,59.1741558],[15.5818715,59.1751061]]],[[[15.5812545,59.1741558],[15.5809697,59.173718],[15.5802495,59.1725649],[15.5812545,59.1741558]]],[[[15.5802495,59.1725649],[15.5801386,59.1723873],[15.5797189,59.1718708],[15.5802495,59.1725649]]]]}},{"type":"Feature","properties":{},"geometry":{"type":"MultiPolygon","coordinates":[[[[15.8326186,59.3918308],[15.8531603,59.3948126],[15.8641629,59.3977298],[15.8719133,59.3978605],[15.88328,59.3990105],[15.8941436,59.3984446],[15.9100124,59.4007878],[15.9152749,59.4024179],[15.9224564,59.4025797],[15.9372154,59.4058309],[15.9536305,59.4105867],[15.9701207,59.4119434],[15.9789773,59.4117578],[15.983757,59.4122464],[15.9920076,59.415743],[15.9992656,59.4177191],[16.0120329,59.4165018],[16.0162655,59.4165973],[16.0367736,59.4238894],[16.0448364,59.4237965],[16.0547376,59.4217014],[16.0831813,59.42524],[16.0944772,59.4281603],[16.0956963,59.4303696],[16.0947079,59.4282134],[16.0997655,59.4290267],[16.103346,59.430637],[16.1048382,59.4307932],[16.1054152,59.4297768],[16.1040835,59.4303873],[16.1037001,59.4302223],[16.1046937,59.4295054],[16.1040312,59.4293471],[16.1033648,59.4300695],[16.1019191,59.4288581],[16.092101,59.4273909],[16.0835952,59.4248816],[16.0555491,59.4213024],[16.0502382,59.4218291],[16.0448739,59.4233408],[16.037707,59.4234828],[16.0164961,59.4159831],[16.0096764,59.4159128],[16.0031066,59.4171377],[15.9995445,59.4172142],[15.9926727,59.4153554],[15.9860262,59.4119106],[15.9833333,59.4112882],[15.969992,59.411261],[15.9542688,59.4097895],[15.9485933,59.4086649],[15.9403429,59.4058855],[15.9321889,59.4043074],[15.9309641,59.4033723],[15.930694,59.4040157],[15.9244212,59.4023735],[15.9159572,59.4020926],[15.9097228,59.4003017],[15.8975562,59.3983328],[15.8942097,59.3980073],[15.8826871,59.3985926],[15.8723221,59.3974967],[15.8640729,59.3973611],[15.8550569,59.3946255],[15.8395824,59.3929052],[15.831963,59.3908151],[15.8326186,59.3918308]],[[15.830737,59.390814],[15.831016,59.3915569],[15.8326088,59.3915231],[15.830737,59.390814]],[[15.8318528,59.3912073],[15.8321617,59.3913125],[15.8323942,59.3913783],[15.8324319,59.3914208],[15.8333212,59.3916441],[15.8332861,59.3916918],[15.8322299,59.3916181],[15.8322147,59.3915854],[15.832279,59.3915961],[15.8324157,59.3916154],[15.8325239,59.3915999],[15.8325834,59.3915669],[15.8326088,59.3915231],[15.8325403,59.3914739],[15.8321475,59.3913851],[15.8318528,59.3912073]],[[15.8151734,59.3982898],[15.8138913,59.3989725],[15.8140039,59.3979293],[15.8178502,59.3944281],[15.8211869,59.3940239],[15.8178019,59.3951519],[15.8166271,59.3961077],[15.816434,59.3970363],[15.8170563,59.3967222],[15.8167237,59.3972711],[15.8151734,59.3982898]],[[15.814558,59.3990401],[15.8146867,59.3988872],[15.8148584,59.3987452],[15.8151159,59.3986797],[15.8153519,59.3985486],[15.8155236,59.398636],[15.8154806,59.3988872],[15.8154163,59.3990729],[15.8152875,59.3993023],[15.8152042,59.3994175],[15.8151667,59.3995513],[15.8150996,59.3996045],[15.8149521,59.3995909],[15.8148851,59.3994188],[15.8148155,59.3992586],[15.814558,59.3990401]]],[[[15.8320709,59.3907885],[15.8292135,59.3903005],[15.8228648,59.3922726],[15.8202414,59.3937323],[15.8176479,59.3941899],[15.8133349,59.398199],[15.8137426,59.3996627],[15.8133712,59.4004367],[15.8155021,59.3997392],[15.8156308,59.3982755],[15.817047,59.3974453],[15.8180556,59.3957084],[15.8215877,59.3944027],[15.8246431,59.3922343],[15.8289695,59.3908086],[15.8326186,59.3918308],[15.8320709,59.3907885]]]]}},{"type":"Feature","properties":{},"geometry":{"type":"MultiPolygon","coordinates":[[[[15.646552,59.5582961],[15.646825,59.5579597],[15.6473921,59.5561702],[15.6436109,59.554922],[15.6432828,59.5540233],[15.6416701,59.5525372],[15.6393086,59.5525372],[15.6382978,59.5528299],[15.6373,59.5535529],[15.6364022,59.5530821],[15.6327724,59.5541183],[15.6310033,59.5549683],[15.6306696,59.5560809],[15.6308734,59.556668],[15.6316137,59.5569018],[15.6324059,59.5579867],[15.6323326,59.5595436],[15.6311309,59.5602828],[15.631367,59.5604622],[15.6314003,59.5608054],[15.6321716,59.5613645],[15.6325471,59.561995],[15.6321877,59.5622858],[15.6325266,59.5631987],[15.6330621,59.5634734],[15.6338131,59.5644354],[15.646552,59.5582961]],[[15.6629473,59.5662343],[15.6631082,59.5662859],[15.6633925,59.5662424],[15.6636125,59.5662397],[15.6637627,59.5663266],[15.6637573,59.5664054],[15.6635535,59.5664245],[15.6632799,59.5663891],[15.6629527,59.5664109],[15.6627756,59.5664544],[15.6625289,59.5664353],[15.662502,59.5663484],[15.6626791,59.5662424],[15.6628561,59.5662261],[15.6629473,59.5662343]],[[15.6499118,59.5639462],[15.6497937,59.5638756],[15.6500244,59.5637995],[15.6502712,59.5638348],[15.6503946,59.5639136],[15.6502068,59.5639761],[15.6499118,59.5639462]]],[[[15.6338131,59.5644354],[15.6361632,59.5650404],[15.6371713,59.5654082],[15.6380081,59.5654843],[15.6375843,59.5657153],[15.6376809,59.5659761],[15.6375846,59.5663421],[15.6338131,59.5644354]]],[[[15.6375846,59.5663421],[15.6375092,59.5666283],[15.6376061,59.5674035],[15.6382916,59.5679111],[15.6375846,59.5663421]]],[[[15.6385785,59.5684132],[15.6395155,59.5690927],[15.6401646,59.5692739],[15.6410015,59.570223],[15.6415218,59.5705735],[15.6421012,59.570742],[15.642305,59.5709946],[15.6438987,59.5710923],[15.644381,59.5709838],[15.6443864,59.5700138],[15.644778,59.5699377],[15.6449282,59.5700872],[15.6449497,59.5705056],[15.6454593,59.5708805],[15.6466131,59.5712662],[15.646677,59.5717581],[15.6470793,59.572258],[15.647358,59.5728793],[15.6489301,59.5737957],[15.649606,59.5745808],[15.6503248,59.5748606],[15.6507915,59.575192],[15.6519288,59.5755262],[15.652594,59.5755669],[15.6385785,59.5684132]]],[[[15.652594,59.5755669],[15.6533396,59.5758684],[15.6535472,59.5759116],[15.652594,59.5755669]]],[[[15.6535472,59.5759116],[15.6539271,59.5759906],[15.655008,59.5768817],[15.6559521,59.5771751],[15.6568694,59.5772077],[15.6570797,59.5774256],[15.6567943,59.5776504],[15.6569177,59.5778025],[15.656805,59.5779139],[15.6559467,59.5783132],[15.6558931,59.5787533],[15.6555337,59.579196],[15.6555659,59.579416],[15.6561667,59.5798452],[15.6560922,59.5800659],[15.6551099,59.5806763],[15.6550294,59.5808909],[15.6555015,59.5812902],[15.6550401,59.5818904],[15.6550401,59.5824554],[15.6552172,59.5826509],[15.6560394,59.5828831],[15.6563087,59.5831306],[15.6535472,59.5759116]]],[[[15.6563087,59.5831306],[15.6576221,59.5836541],[15.6588162,59.5840803],[15.6563087,59.5831306]]],[[[15.6588162,59.5840803],[15.6600237,59.5845113],[15.6619978,59.5849784],[15.6624996,59.5852633],[15.6632209,59.5856574],[15.6632531,59.5857497],[15.6630385,59.5858964],[15.6632209,59.58632],[15.6633925,59.5864612],[15.6653666,59.5866459],[15.6657529,59.5867817],[15.6658924,59.5870858],[15.6661069,59.5872759],[15.6664789,59.5874462],[15.6588162,59.5840803]]],[[[15.6664789,59.5874462],[15.6676871,59.5874493],[15.6680059,59.5876018],[15.6684801,59.5880008],[15.6664789,59.5874462]]],[[[15.6684801,59.5880008],[15.6725507,59.5899573],[15.6732845,59.5904204],[15.6744754,59.5907191],[15.6757296,59.5907747],[15.6770289,59.591474],[15.6776512,59.5916966],[15.6781661,59.5916369],[15.6784665,59.5910015],[15.6789493,59.5908657],[15.6796682,59.5908983],[15.6818381,59.5913271],[15.6841957,59.5914197],[15.6844364,59.5915541],[15.6684801,59.5880008]]],[[[15.6847747,59.591743],[15.6855476,59.5921745],[15.6861015,59.5919398],[15.6870603,59.5917998],[15.6873822,59.5918432],[15.6875968,59.5921311],[15.6879294,59.5921419],[15.6882298,59.5922397],[15.6889343,59.5925197],[15.6890774,59.5927013],[15.6889593,59.5932932],[15.6890916,59.5939422],[15.6895709,59.5945692],[15.6899249,59.5949548],[15.689834,59.5953096],[15.689131,59.5955195],[15.6847747,59.591743]]],[[[15.6886804,59.5958507],[15.6881332,59.5967412],[15.6880268,59.5974459],[15.6877363,59.5977185],[15.6866956,59.5982452],[15.6864703,59.5984461],[15.6886804,59.5958507]]],[[[15.6864703,59.5984461],[15.686481,59.5987284],[15.6867707,59.5990921],[15.6872427,59.5994342],[15.6878221,59.5996894],[15.6883478,59.5998414],[15.6888413,59.5997925],[15.6894207,59.5997925],[15.6905352,59.600064],[15.690625,59.6000389],[15.6938947,59.6004022],[15.6960082,59.6006503],[15.6967592,59.6004386],[15.6975531,59.6003409],[15.6985041,59.6006041],[15.6990659,59.6006449],[15.6994522,59.6006177],[15.6996989,59.6007643],[15.6864703,59.5984461]]],[[[15.6996989,59.6007643],[15.700525,59.6005839],[15.7007461,59.6004589],[15.6996989,59.6007643]]],[[[15.701502,59.6000317],[15.702614,59.5994031],[15.7029773,59.5984949],[15.7035345,59.5982897],[15.701502,59.6000317]]],[[[15.7035345,59.5982897],[15.7051571,59.5980408],[15.7092443,59.5974958],[15.7110379,59.5976775],[15.7117635,59.5980714],[15.7126164,59.5982614],[15.7131475,59.5981067],[15.7137587,59.5980521],[15.7035345,59.5982897]]],[[[15.7137587,59.5980521],[15.7149661,59.5971375],[15.7155669,59.596581],[15.7156485,59.596203],[15.716275,59.5954407],[15.7137587,59.5980521]]],[[[15.716275,59.5954407],[15.7164084,59.5954017],[15.7166451,59.5954516],[15.7168221,59.5954027],[15.7169187,59.5948787],[15.7167149,59.5947539],[15.7167792,59.5946235],[15.7169624,59.5944652],[15.716275,59.5954407]]],[[[15.7169624,59.5944652],[15.7178209,59.593723],[15.7179725,59.5935958],[15.7169624,59.5944652]]],[[[15.7183135,59.5933094],[15.7186997,59.5928506],[15.7188553,59.5924019],[15.7187802,59.591865],[15.7185012,59.591493],[15.718297,59.5912016],[15.7183135,59.5933094]]],[[[15.718297,59.5912016],[15.7169831,59.5908114],[15.7147837,59.5906404],[15.7136194,59.5896028],[15.7131498,59.5894123],[15.7091534,59.5908655],[15.7069736,59.5902298],[15.704158,59.5888674],[15.696347,59.5863243],[15.6947122,59.58696],[15.6928048,59.5870509],[15.6897639,59.5882533],[15.6877478,59.5865823],[15.6867675,59.5830845],[15.6864159,59.5826782],[15.718297,59.5912016]]],[[[15.6864159,59.5826782],[15.6861538,59.5824907],[15.6857726,59.5823405],[15.6855583,59.5823359],[15.6853867,59.5822897],[15.6851882,59.5822028],[15.6852257,59.5821322],[15.6854939,59.5821322],[15.6854886,59.5820588],[15.6852687,59.5819184],[15.6864159,59.5826782]]],[[[15.6840377,59.5815679],[15.6825328,59.5811761],[15.6812238,59.5806003],[15.6800866,59.5799484],[15.6791963,59.579625],[15.6840377,59.5815679]]],[[[15.6786361,59.5794215],[15.6761209,59.578479],[15.6750226,59.5778515],[15.6744861,59.5771343],[15.6739046,59.5765764],[15.672512,59.5760912],[15.6718898,59.5756348],[15.6713401,59.5748444],[15.6701302,59.5743417],[15.6692505,59.5741679],[15.6699586,59.5737332],[15.6698942,59.5731029],[15.6708438,59.5726595],[15.6786361,59.5794215]]],[[[15.6708438,59.5726595],[15.6711634,59.5725103],[15.6715894,59.5721901],[15.6716425,59.5713381],[15.6715035,59.5708316],[15.6708438,59.5726595]]],[[[15.6715035,59.5708316],[15.6711387,59.5706469],[15.6702375,59.5705382],[15.6701302,59.5703969],[15.6706055,59.5701092],[15.6704306,59.5699405],[15.6693363,59.5694514],[15.6705526,59.568413],[15.670774,59.5679733],[15.6703908,59.5672177],[15.6715035,59.5708316]]],[[[15.6703908,59.5672177],[15.6700885,59.5666214],[15.6693578,59.5661473],[15.6680488,59.5656691],[15.6676626,59.5653973],[15.6676626,59.5650278],[15.6683922,59.564256],[15.6702161,59.5642017],[15.6712675,59.563919],[15.6723271,59.5634034],[15.6736221,59.5623485],[15.6742501,59.5622668],[15.6747436,59.5618646],[15.6754517,59.561658],[15.6761094,59.5616561],[15.6765403,59.5617895],[15.6771469,59.5614732],[15.678445,59.5611502],[15.6798935,59.5601035],[15.6799076,59.5594399],[15.679357,59.5591794],[15.6780855,59.5580067],[15.6766748,59.5578313],[15.676192,59.5574073],[15.6759989,59.5563853],[15.6757414,59.5562114],[15.6703908,59.5672177]]],[[[15.6757414,59.5562114],[15.6756019,59.5551023],[15.6754088,59.5547816],[15.6757539,59.5524924],[15.6748509,59.5518838],[15.6744738,59.5519465],[15.6735635,59.5522318],[15.6728017,59.5527102],[15.672668,59.5530923],[15.6729627,59.553852],[15.6723948,59.5548411],[15.6707363,59.5555894],[15.6682819,59.556806],[15.6757414,59.5562114]]],[[[15.6682819,59.556806],[15.665653,59.557899],[15.6620192,59.559125],[15.6600668,59.5594549],[15.6585002,59.5593099],[15.6580313,59.5602261],[15.6589186,59.561196],[15.6596335,59.5622156],[15.659675,59.5626554],[15.6592619,59.5630685],[15.6580388,59.5636799],[15.6576554,59.564617],[15.6568909,59.5645006],[15.655936,59.5646854],[15.6552815,59.5645821],[15.6543052,59.5642886],[15.653758,59.5642886],[15.6533933,59.563881],[15.6534423,59.563631],[15.6682819,59.556806]]],[[[15.6534423,59.563631],[15.6528416,59.5631802],[15.6524598,59.5629842],[15.6519985,59.5629516],[15.6513762,59.5627831],[15.6507003,59.5627125],[15.650196,59.5627831],[15.6534423,59.563631]]],[[[15.650196,59.5627831],[15.6498206,59.5630005],[15.6495738,59.5631799],[15.6499386,59.5632777],[15.6496167,59.5634571],[15.6491446,59.563419],[15.6489638,59.5631397],[15.6484528,59.5630962],[15.6475353,59.5634163],[15.6463659,59.5628809],[15.645228,59.5625432],[15.6443703,59.561957],[15.6443167,59.5617939],[15.6456685,59.5614352],[15.6462113,59.5608023],[15.6460049,59.5596422],[15.650196,59.5627831]]],[[[15.6460049,59.5596422],[15.6459796,59.5595001],[15.6460793,59.5592202],[15.6460049,59.5596422]]],[[[15.6460793,59.5592202],[15.6462961,59.5586114],[15.646552,59.5582961],[15.6460793,59.5592202]]]]}},{"type":"Feature","properties":{},"geometry":{"type":"MultiPolygon","coordinates":[[[[15.8040154,59.5459571],[15.8044553,59.5460985],[15.8046484,59.5462235],[15.8047557,59.5464791],[15.8046806,59.5466151],[15.8044124,59.5467238],[15.8039725,59.5467836],[15.8035004,59.5467456],[15.8032966,59.546664],[15.8020949,59.5459516],[15.8015585,59.545745],[15.8011722,59.5456634],[15.800904,59.5454731],[15.8008504,59.5452828],[15.8009791,59.5451251],[15.8012903,59.5450218],[15.8017731,59.5448967],[15.8040154,59.5459571]]],[[[15.8017731,59.5448967],[15.802052,59.5449293],[15.8036184,59.5458211],[15.8040154,59.5459571],[15.8017731,59.5448967]]]]}},{"type":"Feature","properties":{},"geometry":{"type":"Polygon","coordinates":[[[15.8270073,59.5553198],[15.8267069,59.5552709],[15.8265567,59.5551078],[15.8265781,59.5549175],[15.8272111,59.5544772],[15.8273828,59.5543576],[15.8272755,59.5541945],[15.8271789,59.5540966],[15.8273291,59.5540368],[15.8277798,59.5541347],[15.8286595,59.5544989],[15.8290458,59.5550262],[15.8294213,59.5554014],[15.8296251,59.5555699],[15.8292603,59.5554829],[15.8288312,59.5552491],[15.8284128,59.555173],[15.8275866,59.5552056],[15.8272648,59.5552763],[15.8270073,59.5553198]],[[15.8269966,59.5549719],[15.8271038,59.5547816],[15.8273613,59.554662],[15.8277261,59.5546674],[15.8277261,59.5547707],[15.8273291,59.5549121],[15.8271682,59.5549773],[15.8269966,59.5549719]]]}},{"type":"Feature","properties":{},"geometry":{"type":"Polygon","coordinates":[[[15.8637428,59.5192574],[15.8632278,59.5190724],[15.8627665,59.5188329],[15.8626163,59.5187295],[15.8627665,59.5186152],[15.8631098,59.5186533],[15.8639252,59.5187894],[15.8648372,59.5190343],[15.864923,59.5191758],[15.8647728,59.5192846],[15.8644831,59.5193227],[15.8637428,59.5192574]],[[15.8637857,59.5191268],[15.8631635,59.5188764],[15.8631956,59.5187839],[15.8634531,59.5187785],[15.8643865,59.5190451],[15.8647299,59.5191159],[15.8647299,59.5191975],[15.8645475,59.5192247],[15.8637857,59.5191268]]]}},{"type":"Feature","properties":{},"geometry":{"type":"MultiPolygon","coordinates":[[[[15.7743725,59.5344829],[15.7754493,59.5352702],[15.7755243,59.5355348],[15.7747813,59.5359467],[15.7726158,59.5357555],[15.7722224,59.5356111],[15.7711699,59.5348825],[15.7702008,59.5344472],[15.7698314,59.5335981],[15.7694234,59.5333411],[15.7687348,59.5332356],[15.768431,59.5328192],[15.7674731,59.5326823],[15.7672086,59.5323131],[15.7667324,59.5320321],[15.7669012,59.5318838],[15.7668899,59.5315815],[15.7685477,59.5323237],[15.7711177,59.5325013],[15.7729752,59.5329795],[15.7744591,59.5337531],[15.7743725,59.5344829]],[[15.7731218,59.5348554],[15.7730318,59.5347641],[15.7731668,59.5346843],[15.773403,59.534747],[15.7733805,59.5348668],[15.7731218,59.5348554]]],[[[15.7744591,59.5337531],[15.7743024,59.5337921],[15.7738341,59.5338354],[15.7735164,59.5339197],[15.7735173,59.5340544],[15.7735793,59.5341814],[15.7736914,59.5342989],[15.7738861,59.5344033],[15.7743725,59.5344829],[15.7744591,59.5337531]]]]}},{"type":"Feature","properties":{},"geometry":{"type":"MultiPolygon","coordinates":[[[[15.8126209,59.4801533],[15.813408,59.4802548],[15.8133786,59.4805441],[15.8136723,59.4809409],[15.813596,59.4812511],[15.8137898,59.4812958],[15.8133023,59.4814718],[15.8136782,59.4816269],[15.8131907,59.481609],[15.8128852,59.4817492],[15.8128323,59.4818954],[15.8127149,59.4818447],[15.8128735,59.4813078],[15.8126209,59.4801533]],[[15.8132377,59.4809796],[15.8132729,59.4808961],[15.8133845,59.4808812],[15.8133845,59.4809796],[15.8133081,59.4810035],[15.8132377,59.4809796]]],[[[15.8127853,59.4811884],[15.812662,59.4810751],[15.8126385,59.4808394],[15.812709,59.4806724],[15.8126914,59.4805411],[15.8125328,59.480395],[15.8125034,59.4802965],[15.8126209,59.4801533],[15.8127853,59.4811884]]]]}},{"type":"Feature","properties":{},"geometry":{"type":"MultiPolygon","coordinates":[[[[15.8138074,59.4765287],[15.8137193,59.4765824],[15.8137076,59.4766152],[15.8137604,59.4767882],[15.8137722,59.4769076],[15.8136312,59.4770627],[15.8135079,59.4772805],[15.8134726,59.4774446],[15.8135725,59.477552],[15.8135725,59.4777101],[15.8132788,59.4779607],[15.8131495,59.4781427],[15.8129674,59.4783485],[15.8130144,59.4784768],[15.8130144,59.4787065],[15.8128382,59.4791271],[15.8138074,59.4765287]],[[15.8131084,59.4792912],[15.8131848,59.4790168],[15.8133375,59.4789959],[15.8133493,59.4790705],[15.8132318,59.4792942],[15.8131613,59.479321],[15.8131084,59.4792912]],[[15.8139425,59.4787155],[15.8140189,59.4784529],[15.8141305,59.4783992],[15.8142304,59.478441],[15.814107,59.4787274],[15.814013,59.4787542],[15.8139425,59.4787155]]],[[[15.8128382,59.4791271],[15.8128441,59.4800609],[15.8134139,59.4801205],[15.8136958,59.4797983],[15.8141481,59.4796552],[15.8145182,59.4791092],[15.8151174,59.47879],[15.8151937,59.4784947],[15.8150645,59.4779607],[15.8144888,59.4777996],[15.8149,59.4769553],[15.814712,59.4768569],[15.8146592,59.4766271],[15.8138074,59.4765287],[15.8128382,59.4791271]]]]}},{"type":"Feature","properties":{},"geometry":{"type":"MultiPolygon","coordinates":[[[[15.8062768,59.5088324],[15.8057952,59.509059],[15.8055485,59.5090351],[15.8050903,59.5089278],[15.8047966,59.5090053],[15.8047966,59.5090947],[15.8048788,59.5092378],[15.8048201,59.5095299],[15.804961,59.5097385],[15.8062768,59.5088324]],[[15.8055602,59.5096849],[15.8053957,59.5095955],[15.8054662,59.5094107],[15.8057834,59.509363],[15.8060419,59.5094345],[15.8060654,59.5095835],[15.8058774,59.5096908],[15.8055602,59.5096849]]],[[[15.804961,59.5097385],[15.8053957,59.5099114],[15.8057482,59.5099233],[15.8062651,59.5098041],[15.804961,59.5097385]]],[[[15.8062651,59.5098041],[15.8064883,59.5096193],[15.8065353,59.5094226],[15.8063591,59.5092676],[15.8062064,59.5091663],[15.8062064,59.509053],[15.8064061,59.508898],[15.8062768,59.5088324],[15.8062651,59.5098041]]]]}},{"type":"Feature","properties":{},"geometry":{"type":"MultiPolygon","coordinates":[[[[15.7738283,59.5086],[15.7741103,59.5084628],[15.774545,59.5084271],[15.7747564,59.5084152],[15.7752616,59.5081886],[15.7757315,59.5081827],[15.775849,59.5082781],[15.7758373,59.5084032],[15.7754613,59.5085761],[15.7752969,59.5086655],[15.7749444,59.5086894],[15.774451,59.5088384],[15.774122,59.5088622],[15.7738283,59.5086]]],[[[15.7738283,59.5086],[15.7740515,59.5086298],[15.7742278,59.5086774],[15.774122,59.5088622],[15.7738283,59.5086]]]]}},{"type":"Feature","properties":{},"geometry":{"type":"MultiPolygon","coordinates":[[[[15.770997,59.5115029],[15.7716079,59.5115089],[15.7723011,59.5112883],[15.7723598,59.5111453],[15.7721366,59.5109366],[15.7716784,59.5108949],[15.7712907,59.5109962],[15.770997,59.5115029]]],[[[15.770997,59.5115029],[15.7707738,59.5113658],[15.7707621,59.5112228],[15.7708678,59.5111512],[15.771044,59.5110737],[15.770997,59.5115029]]]]}},{"type":"Feature","properties":{},"geometry":{"type":"Polygon","coordinates":[[[15.8024469,59.5236663],[15.8024469,59.5235353],[15.8027054,59.5235174],[15.8033045,59.5235829],[15.8035513,59.5237021],[15.803328,59.5238689],[15.8030578,59.5238928],[15.8027289,59.523857],[15.8024469,59.5236663]]]}},{"type":"Feature","properties":{},"geometry":{"type":"MultiPolygon","coordinates":[[[[15.7661229,59.4813841],[15.7655868,59.4811979],[15.7649599,59.4812966],[15.7636934,59.4816754],[15.7635336,59.4818633],[15.7632765,59.4818999],[15.7632358,59.4820845],[15.7637655,59.4819269],[15.7638094,59.4817757],[15.7653173,59.4817709],[15.7652546,59.4815799],[15.7656464,59.4813889],[15.7657875,59.4814908],[15.7655461,59.4816086],[15.7656276,59.4816834],[15.7663831,59.4814382],[15.7661229,59.4813841]],[[15.7649003,59.4815544],[15.7648752,59.481521],[15.7649505,59.4814939],[15.7650132,59.4815019],[15.7650038,59.4815417],[15.7649003,59.4815544]]],[[[15.7663831,59.4814382],[15.7663047,59.4813905],[15.7661229,59.4813841],[15.7663831,59.4814382]]]]}},{"type":"Feature","properties":{},"geometry":{"type":"MultiPolygon","coordinates":[[[[15.7770002,59.4043735],[15.7774937,59.404379],[15.7778799,59.404379],[15.7780731,59.4045374],[15.7781911,59.4048541],[15.778588,59.4050889],[15.7790172,59.4051271],[15.7794893,59.4049742],[15.7795751,59.4047722],[15.7791889,59.4045701],[15.7788885,59.4043899],[15.7770002,59.4043735]]],[[[15.7770002,59.4043735],[15.7771289,59.4041278],[15.7776868,59.4039913],[15.7781804,59.4040186],[15.7781482,59.4042916],[15.7783949,59.4044063],[15.7787382,59.4044609],[15.7788885,59.4043899],[15.7770002,59.4043735]]]]}},{"type":"Feature","properties":{},"geometry":{"type":"MultiPolygon","coordinates":[[[[15.7500815,59.3956189],[15.7503712,59.3956844],[15.7505965,59.3956025],[15.7506609,59.3954823],[15.7504675,59.3952748],[15.7504567,59.3949744],[15.7507034,59.3944718],[15.7509717,59.3943079],[15.7515618,59.3942588],[15.7500815,59.3956189]]],[[[15.7480642,59.3947613],[15.7496628,59.3949142],[15.7501781,59.3951819],[15.7500815,59.3956189],[15.7480642,59.3947613]]],[[[15.7440154,59.3947647],[15.7442987,59.394592],[15.7452961,59.3945974],[15.7470771,59.3947886],[15.7480642,59.3947613],[15.7440154,59.3947647]]],[[[15.7441914,59.3943407],[15.7438584,59.3944445],[15.7436318,59.3946071],[15.7437941,59.3946867],[15.7440154,59.3947647],[15.7441914,59.3943407]]],[[[15.7536003,59.3930024],[15.7516476,59.393647],[15.7494589,59.3942041],[15.7484075,59.3940184],[15.7474204,59.3940403],[15.746133,59.3939747],[15.7445666,59.394226],[15.7441914,59.3943407],[15.7536003,59.3930024]]],[[[15.7519447,59.3941621],[15.7527516,59.3939583],[15.7534715,59.3938109],[15.7539007,59.393494],[15.7542225,59.3929369],[15.7536003,59.3930024],[15.7519447,59.3941621]]]]}},{"type":"Feature","properties":{},"geometry":{"type":"MultiPolygon","coordinates":[[[[15.6469345,59.3599625],[15.647192,59.3602824],[15.6468809,59.360605],[15.646795,59.3608838],[15.6464088,59.3611736],[15.6457972,59.361283],[15.6455183,59.3612966],[15.6452554,59.361395],[15.6449604,59.3614361],[15.6447029,59.3613212],[15.6442094,59.3612037],[15.6469345,59.3599625]],[[15.6452662,59.3605366],[15.6454968,59.3600718],[15.6455934,59.3600992],[15.6453735,59.360553],[15.6452984,59.3605722],[15.6452662,59.3605366]],[[15.646103,59.3605667],[15.646264,59.3602414],[15.6463766,59.3601757],[15.6464463,59.3602058],[15.6462854,59.3605557],[15.6461996,59.3606022],[15.646103,59.3605667]]],[[[15.6469345,59.3599625],[15.6464088,59.3598805],[15.6457329,59.3598176],[15.6449443,59.3597301],[15.6442416,59.3596672],[15.6440538,59.3596946],[15.6438875,59.359793],[15.6437695,59.3602714],[15.6438178,59.3603753],[15.6440967,59.3605147],[15.6442147,59.3607225],[15.6441396,59.3609303],[15.6442147,59.3611271],[15.6442094,59.3612037],[15.6469345,59.3599625]]]]}},{"type":"Feature","properties":{},"geometry":{"type":"MultiPolygon","coordinates":[[[[15.7990158,59.3391126],[15.7990909,59.3391591],[15.7992142,59.3391727],[15.7993162,59.3391974],[15.7993591,59.339222],[15.799461,59.3392931],[15.7996541,59.3393642],[15.7998097,59.3393834],[15.7999921,59.3394326],[15.8000886,59.3394408],[15.8002442,59.339449],[15.8004159,59.3394518],[15.8006734,59.3394764],[15.7990158,59.3391126]]],[[[15.8006734,59.3394764],[15.8011776,59.3397937],[15.8010194,59.3401398],[15.7995683,59.3403969],[15.7988736,59.3403381],[15.7982057,59.339951],[15.7969263,59.3398047],[15.7959688,59.3394737],[15.7966608,59.3390852],[15.7980233,59.3386065],[15.7990158,59.3391126],[15.8006734,59.3394764]]]]}},{"type":"Feature","properties":{},"geometry":{"type":"MultiPolygon","coordinates":[[[[15.7950038,59.3511514],[15.7948188,59.3514509],[15.794969,59.3516857],[15.7948174,59.3517418],[15.7948939,59.3519404],[15.7959828,59.3518296],[15.7968787,59.3510557],[15.7970182,59.3505703],[15.7976067,59.3502395],[15.7950038,59.3511514]]],[[[15.7976067,59.3502395],[15.7974071,59.3501724],[15.795315,59.3505293],[15.7950038,59.3511514],[15.7976067,59.3502395]]]]}},{"type":"Feature","properties":{},"geometry":{"type":"Polygon","coordinates":[[[15.951106,59.3684554],[15.9525889,59.3669708],[15.9525454,59.3662363],[15.9519854,59.3658066],[15.9535514,59.365274],[15.9539677,59.3644786],[15.9522605,59.3640764],[15.9509897,59.3648805],[15.9502475,59.3641737],[15.9496448,59.3647236],[15.94948,59.3652779],[15.9464621,59.3656841],[15.9468915,59.3652475],[15.9452526,59.3646112],[15.9412202,59.3652077],[15.9416105,59.3664273],[15.9431193,59.3681637],[15.9410902,59.3695158],[15.9392089,59.3704584],[15.9400235,59.3714774],[15.9431714,59.3718087],[15.9423649,59.37271],[15.9415064,59.371928],[15.9394512,59.371822],[15.9393732,59.3722726],[15.9411618,59.3730383],[15.9397623,59.3736416],[15.9412648,59.3737728],[15.9422082,59.3743154],[15.9421183,59.3744397],[15.9439035,59.3750054],[15.944121,59.3752191],[15.9439251,59.3753122],[15.9444517,59.3752162],[15.944365,59.3757343],[15.9446389,59.3758678],[15.9448694,59.3758993],[15.9460693,59.3754863],[15.9462119,59.3749342],[15.9456428,59.373651],[15.945955,59.3732401],[15.9472558,59.3726702],[15.9473858,59.3720341],[15.9481923,59.3707484],[15.9491819,59.3704401],[15.9495451,59.3699797],[15.9490508,59.3692507],[15.951106,59.3684554]],[[15.9446651,59.3735611],[15.9443378,59.3736704],[15.9441984,59.3740257],[15.9439784,59.3741377],[15.943678,59.3738808],[15.9438389,59.3735529],[15.9444559,59.3734818],[15.9446651,59.3735611]],[[15.9439677,59.372744],[15.9437129,59.3727576],[15.9436163,59.3728615],[15.943446,59.3729424],[15.9434587,59.3729834],[15.9435332,59.3729899],[15.9437451,59.372923],[15.9438175,59.3728738],[15.9440079,59.3728383],[15.9440562,59.3727877],[15.9439677,59.372744]],[[15.9443513,59.3719979],[15.9441367,59.3720389],[15.9439972,59.3721154],[15.9439838,59.3721906],[15.9440643,59.3722616],[15.9442037,59.372222],[15.944252,59.3721509],[15.9443888,59.372196],[15.9445551,59.3721755],[15.9445685,59.3720908],[15.9443513,59.3719979]],[[15.9452766,59.3718886],[15.9450567,59.3719733],[15.945062,59.3720512],[15.9452337,59.3720061],[15.9454402,59.3719801],[15.9452766,59.3718886]],[[15.9437612,59.3695067],[15.943619,59.3696734],[15.943957,59.3697568],[15.9442842,59.3697308],[15.9446973,59.3696474],[15.9448072,59.36956],[15.9445283,59.3694821],[15.9442869,59.3695149],[15.9440106,59.3694561],[15.9437612,59.3695067]],[[15.9411916,59.3705999],[15.9409475,59.3707995],[15.9410655,59.3708787],[15.9413365,59.3708104],[15.9415269,59.3707858],[15.9416154,59.3707202],[15.9416208,59.3706491],[15.9414518,59.3705808],[15.9411916,59.3705999]],[[15.9474519,59.3698647],[15.9476772,59.3699713],[15.9483397,59.3699809],[15.9484041,59.3702228],[15.9486347,59.3702583],[15.9487823,59.3700929],[15.9485918,59.3699057],[15.948278,59.3697513],[15.9477925,59.3696338],[15.9474948,59.3696939],[15.9474519,59.3698647]],[[15.9460035,59.36789],[15.9456146,59.3679323],[15.9454429,59.3680198],[15.9454054,59.3681455],[15.9455663,59.3683656],[15.945687,59.3684202],[15.9459364,59.3682986],[15.9462154,59.3682275],[15.9462959,59.3680061],[15.9461966,59.3679173],[15.9460035,59.36789]],[[15.9476047,59.3704954],[15.9476852,59.3706341],[15.947535,59.3707783],[15.9473232,59.3708766],[15.9470294,59.3709108],[15.9467022,59.3708227],[15.9463052,59.3708801],[15.9459055,59.3708814],[15.9454617,59.3707612],[15.9452096,59.3706477],[15.9450996,59.3704687],[15.9453759,59.3703608],[15.9458104,59.3703007],[15.9461939,59.3702856],[15.9465842,59.370315],[15.9468967,59.3702638],[15.9471823,59.3703164],[15.9476047,59.3704954]]]}}]}