{"type":"FeatureCollection","features":[{"type":"Feature","properties":{"name":"Arboga kommun"},"geometry":{"type":"MultiPolygon","coordinates":[[[[15.7620367,59.1979186],[15.7714593,59.2064244],[15.7972659,59.2297417],[15.7981743,59.2305249],[15.7964486,59.2303521],[15.7284174,59.223599],[15.7265391,59.2233956],[15.7259382,59.2242513],[15.7180297,59.2350622],[15.7063685,59.250979],[15.7059698,59.2513975],[15.6922773,59.2697563],[15.6916752,59.2705253],[15.6547406,59.2766559],[15.6525742,59.2770313],[15.6512365,59.2773664],[15.6303824,59.2827847],[15.6076998,59.2887305],[15.6206352,59.3041753],[15.6255314,59.310066],[15.6279852,59.3132971],[15.6287067,59.3140286],[15.6295504,59.3148929],[15.6309216,59.3155301],[15.6317907,59.3165527],[15.6315385,59.3173706],[15.6315795,59.3183385],[15.6310302,59.3202076],[15.6347741,59.3221131],[15.6348079,59.3233929],[15.6350185,59.3282227],[15.6353152,59.3339546],[15.6325508,59.3353604],[15.6270245,59.3391405],[15.6219622,59.3425922],[15.6167473,59.3461524],[15.6150357,59.3473313],[15.6145166,59.3476943],[15.6165087,59.3484737],[15.6175842,59.3505606],[15.618083,59.3514883],[15.6192292,59.3525519],[15.6160481,59.3579666],[15.6147366,59.3587709],[15.6130583,59.3597693],[15.6125739,59.363306],[15.6110142,59.3638277],[15.6001481,59.3673258],[15.6001017,59.3671109],[15.6000462,59.3669557],[15.6000033,59.3668781],[15.5999559,59.3668249],[15.5995795,59.3683695],[15.601,59.3691525],[15.6011805,59.3692312],[15.6015689,59.369375],[15.6020718,59.3695777],[15.6024852,59.3697551],[15.6028603,59.3698572],[15.603165,59.3699051],[15.6033893,59.3699326],[15.6035533,59.3699785],[15.6037802,59.3700554],[15.6039868,59.370179],[15.6040817,59.3702458],[15.5993835,59.3732228],[15.5998844,59.3749381],[15.6010615,59.3789711],[15.6021407,59.3854981],[15.6033913,59.3927673],[15.6035677,59.39397],[15.603725,59.3950166],[15.6039711,59.3965531],[15.6176574,59.3969085],[15.6200734,59.3969651],[15.6226056,59.3970124],[15.6227112,59.3970103],[15.6243734,59.3970401],[15.6243144,59.3971229],[15.6258932,59.4016494],[15.6267175,59.4038388],[15.6293756,59.4046],[15.6304141,59.4048587],[15.6307479,59.4049084],[15.6310959,59.4049473],[15.6315885,59.4049671],[15.6323379,59.4049932],[15.6329819,59.4050117],[15.633499,59.4050387],[15.6344797,59.4051518],[15.635464,59.4052577],[15.6363711,59.4053471],[15.6369689,59.4053959],[15.6375571,59.4053765],[15.6382193,59.405343],[15.638938,59.4053025],[15.6393539,59.4052627],[15.6395232,59.4052364],[15.640328,59.4050741],[15.6413491,59.4047906],[15.6422885,59.4045534],[15.643055,59.4043569],[15.6439983,59.4040963],[15.6448284,59.4038731],[15.6452629,59.403758],[15.645704,59.4036752],[15.646378,59.4035447],[15.6472802,59.4034599],[15.6481861,59.403368],[15.6487147,59.403325],[15.6494428,59.4033634],[15.6505858,59.4034447],[15.6521395,59.4036242],[15.6533087,59.4038563],[15.6540674,59.4039882],[15.6554614,59.4039877],[15.6573129,59.4039995],[15.658911,59.404005],[15.6606568,59.4040289],[15.6618594,59.4041282],[15.6632903,59.4042803],[15.664018,59.4043599],[15.6652351,59.4047177],[15.6667295,59.4051411],[15.668294,59.405597],[15.6700308,59.4060713],[15.670871,59.4061711],[15.6723413,59.406273],[15.6736479,59.406227],[15.6759588,59.4061055],[15.6774944,59.4060441],[15.6786501,59.4059654],[15.6791564,59.4060155],[15.6806495,59.4062717],[15.6816474,59.4064312],[15.6820309,59.4064558],[15.6852887,59.4066351],[15.6864769,59.4067898],[15.6869965,59.406906],[15.6881001,59.4070841],[15.6892705,59.4072638],[15.6901174,59.4073994],[15.6909782,59.4075548],[15.6921478,59.4078027],[15.6936478,59.4081037],[15.6957971,59.4085882],[15.6972221,59.4089894],[15.6977451,59.4091293],[15.698395,59.4092624],[15.6994112,59.4093841],[15.7003923,59.4094967],[15.7009409,59.4095559],[15.7015112,59.4095721],[15.7019413,59.4095232],[15.7027413,59.4094611],[15.7029386,59.4094419],[15.7031355,59.4094713],[15.7033039,59.4095221],[15.7036059,59.4095966],[15.7039285,59.4097197],[15.7041948,59.4098372],[15.7044231,59.4098882],[15.7047361,59.4099179],[15.7051027,59.4098813],[15.705357,59.4098157],[15.7057611,59.4095656],[15.7058714,59.4094619],[15.7061054,59.4093172],[15.7064208,59.4091333],[15.7066006,59.4091159],[15.7072065,59.4090872],[15.7077523,59.4090889],[15.708224,59.4090994],[15.7090258,59.4091844],[15.7096517,59.4092617],[15.7101444,59.4092812],[15.7104789,59.4092822],[15.7108947,59.4092584],[15.711385,59.4091755],[15.7120239,59.4090249],[15.7126096,59.4089172],[15.7128807,59.4089198],[15.7137285,59.4089852],[15.7143062,59.4090968],[15.714484,59.4091312],[15.7149864,59.4092314],[15.7155484,59.4093588],[15.7161382,59.4095222],[15.716788,59.4096624],[15.7174539,59.4098797],[15.7178393,59.4100095],[15.7181435,59.4101252],[15.7185607,59.4102675],[15.7188996,59.4103311],[15.719277,59.4103766],[15.7196718,59.4104059],[15.7201156,59.4104081],[15.7206475,59.4104137],[15.7212037,59.410394],[15.7215516,59.410323],[15.721882,59.4102663],[15.7222681,59.4101485],[15.7225451,59.4100436],[15.7227476,59.409894],[15.7230097,59.4097209],[15.7234293,59.4094594],[15.7237585,59.4093041],[15.7240392,59.4092135],[15.7244363,59.4091404],[15.7249033,59.4090241],[15.7253989,59.4089382],[15.7258316,59.4089028],[15.7263138,59.4088815],[15.726796,59.4088639],[15.7271864,59.4088214],[15.7274641,59.4087774],[15.7278827,59.4087366],[15.7282735,59.4087264],[15.7288895,59.4087048],[15.7297407,59.4086141],[15.7301627,59.4085715],[15.7302249,59.4087687],[15.7303778,59.4091953],[15.7309042,59.4096351],[15.7309803,59.4098143],[15.7309994,59.4099417],[15.7306398,59.4115986],[15.7306277,59.4138733],[15.7307382,59.4145974],[15.7307978,59.4147503],[15.7308424,59.4148465],[15.7312416,59.4164369],[15.7314733,59.4175891],[15.7314956,59.4178329],[15.7313295,59.4186232],[15.7312411,59.4191062],[15.7311431,59.4194269],[15.730205,59.42203],[15.7301661,59.4256191],[15.7302174,59.4272913],[15.7302505,59.4286066],[15.7299464,59.4305523],[15.7299285,59.4306816],[15.7297931,59.431317],[15.729683,59.4316994],[15.729421,59.4322216],[15.7291805,59.4326416],[15.7290425,59.4328964],[15.7287557,59.4334564],[15.7278428,59.4351021],[15.7273757,59.4358936],[15.7271632,59.436371],[15.727032,59.4366923],[15.726911,59.4371859],[15.7267515,59.4375646],[15.7266093,59.438069],[15.726429,59.438322],[15.7258034,59.4390829],[15.7244316,59.4408647],[15.7238163,59.4417099],[15.7234242,59.442049],[15.7232829,59.4421925],[15.7230318,59.4425424],[15.7224875,59.4431632],[15.7220173,59.4437231],[15.7217344,59.4440694],[15.7216672,59.4441842],[15.7212253,59.4446741],[15.7205644,59.4453881],[15.7197763,59.4461704],[15.7187088,59.4472953],[15.7176166,59.4484525],[15.7157392,59.4504677],[15.7156135,59.451665],[15.7155791,59.4521047],[15.7154954,59.4529106],[15.7154297,59.4541149],[15.7152825,59.4549138],[15.7152663,59.4550628],[15.7152864,59.455314],[15.7152826,59.4556406],[15.715328,59.4559581],[15.7153445,59.4562021],[15.7153291,59.4564229],[15.7152183,59.4566331],[15.7150247,59.4570247],[15.7148492,59.4574648],[15.7146349,59.4579031],[15.7142345,59.4587816],[15.714111,59.4591318],[15.7143951,59.4600499],[15.714701,59.4617468],[15.7147161,59.4622098],[15.7142546,59.4633396],[15.7139869,59.4640903],[15.7138023,59.4654061],[15.713715,59.4662102],[15.7136712,59.4667738],[15.7136047,59.4679063],[15.7135571,59.468084],[15.7135414,59.4682815],[15.7135424,59.4687444],[15.7134738,59.469667],[15.713325,59.4717507],[15.7131206,59.4737652],[15.7130925,59.4750226],[15.7128267,59.475795],[15.712192,59.4758328],[15.7110567,59.4758866],[15.710975,59.4758924],[15.7012963,59.4764028],[15.6854776,59.4774227],[15.6855695,59.4775225],[15.6857263,59.4776693],[15.685942,59.4777153],[15.6861367,59.4777704],[15.6863422,59.4778542],[15.6865308,59.4779991],[15.6865392,59.4781283],[15.6864804,59.4782379],[15.6864353,59.4783135],[15.6863977,59.4784212],[15.6863607,59.4785883],[15.6864181,59.478685],[15.6865887,59.4787922],[15.6867935,59.4789393],[15.6868673,59.4790527],[15.6869369,59.4791283],[15.6873167,59.4793575],[15.6876136,59.4796659],[15.6879845,59.480011],[15.6880726,59.4800993],[15.6881841,59.4801682],[15.6883574,59.4802534],[15.6885393,59.4803297],[15.6886454,59.4804087],[15.6887118,59.4804918],[15.6887649,59.480586],[15.6888648,59.4807854],[15.6888983,59.480945],[15.688934,59.4810966],[15.6889591,59.4816085],[15.6889118,59.4818294],[15.6889579,59.4819688],[15.6891485,59.482161],[15.6892357,59.4823504],[15.6893746,59.4825583],[15.6894863,59.4827556],[15.6896778,59.483216],[15.6898351,59.483474],[15.6899164,59.4835958],[15.6899957,59.4837016],[15.6900634,59.4838309],[15.6900742,59.4840199],[15.6900696,59.4842398],[15.6901029,59.4843488],[15.6901718,59.4845087],[15.6902889,59.4848262],[15.6903036,59.4849454],[15.6902734,59.4850819],[15.6901868,59.4852347],[15.6901053,59.4853901],[15.6900557,59.485479],[15.6899469,59.4855617],[15.6898924,59.4856547],[15.6899137,59.4857667],[15.6899289,59.4858702],[15.6899083,59.4859547],[15.6898457,59.4860128],[15.6898121,59.48607],[15.6897466,59.4861575],[15.6896252,59.4862852],[15.6894686,59.4863943],[15.6894167,59.4864914],[15.6894569,59.4866223],[15.6895535,59.4868154],[15.6895175,59.4868853],[15.6894484,59.4869379],[15.6893055,59.4869906],[15.6891095,59.4870881],[15.6890787,59.4871604],[15.6891395,59.487226],[15.6893457,59.4873831],[15.689508,59.4875212],[15.6895155,59.4875796],[15.6894585,59.4876551],[15.6893316,59.4877349],[15.6890167,59.487879],[15.6888197,59.4880321],[15.6887594,59.4880762],[15.6886464,59.4881803],[15.6885684,59.4883159],[15.6884715,59.4885241],[15.6883656,59.4886234],[15.6882404,59.4886918],[15.6881169,59.4888003],[15.6880659,59.4889089],[15.6880547,59.489001],[15.6881015,59.4890728],[15.6885098,59.489283],[15.6886282,59.4893544],[15.6887119,59.4894507],[15.6887224,59.4895784],[15.6887504,59.489647],[15.6889084,59.489822],[15.6888425,59.4899227],[15.6887223,59.4899955],[15.6886487,59.4901188],[15.6886162,59.4902194],[15.6886253,59.4902599],[15.6886447,59.4903155],[15.6887148,59.4903633],[15.689105,59.4905126],[15.6892482,59.4905766],[15.6892765,59.4906479],[15.6892871,59.490891],[15.6894989,59.491286],[15.6896351,59.4914538],[15.689739,59.4915964],[15.6897798,59.4917474],[15.6897074,59.4918039],[15.6895605,59.4919041],[15.6894927,59.4919943],[15.6893464,59.492151],[15.689241,59.4922199],[15.6892001,59.4922785],[15.6892028,59.4924871],[15.6892433,59.4925302],[15.6893246,59.4925596],[15.689467,59.4925718],[15.6896942,59.4925496],[15.689901,59.492555],[15.6902607,59.4925335],[15.6904173,59.4925509],[15.6905038,59.4925883],[15.6905002,59.4926798],[15.6904298,59.4927764],[15.6904097,59.4928103],[15.690406,59.4929136],[15.6904625,59.4929815],[15.6907487,59.4931004],[15.6908359,59.4931494],[15.6909703,59.4932135],[15.6910211,59.4933118],[15.6909156,59.4934186],[15.6907329,59.4935379],[15.6906966,59.4936357],[15.690729,59.4937598],[15.6907339,59.4938233],[15.6906821,59.4938689],[15.6906957,59.4939022],[15.6907818,59.4939373],[15.6910093,59.4939726],[15.6911195,59.494006],[15.69114,59.4940411],[15.6910912,59.4941014],[15.6909365,59.4941545],[15.6908659,59.4942306],[15.6908283,59.4943179],[15.6909051,59.494382],[15.6909347,59.4945076],[15.690943,59.4946332],[15.6908863,59.494819],[15.6907629,59.4948854],[15.6906805,59.4949631],[15.6907275,59.4950199],[15.690823,59.4950488],[15.6909928,59.4951282],[15.6910917,59.4952202],[15.6911126,59.4953093],[15.6910747,59.495392],[15.6909844,59.49553],[15.6908071,59.4955731],[15.6906014,59.4956179],[15.6905458,59.4957025],[15.6905948,59.495805],[15.690771,59.495985],[15.6906802,59.4960748],[15.6905814,59.4961187],[15.6969332,59.4982324],[15.7013739,59.4994354],[15.7021588,59.5006471],[15.7036617,59.503046],[15.703736,59.5030566],[15.7069765,59.503948],[15.7079345,59.5042161],[15.7137128,59.5057819],[15.7171421,59.5067403],[15.7197415,59.5075154],[15.7197127,59.5101682],[15.719645,59.5113474],[15.7189131,59.5138481],[15.7172736,59.5193557],[15.7169078,59.5199895],[15.7160099,59.5213042],[15.7151903,59.5224829],[15.7144237,59.523631],[15.7138735,59.5244724],[15.71376,59.5246087],[15.7136422,59.5250053],[15.713471,59.52554],[15.7133997,59.5257481],[15.7240784,59.5252823],[15.7338212,59.5248287],[15.7377881,59.5246499],[15.7368402,59.5288294],[15.7349915,59.5371081],[15.7331599,59.5452559],[15.7476042,59.5345774],[15.7487848,59.5337106],[15.7508347,59.5321942],[15.7551767,59.5259437],[15.75798,59.5218933],[15.7598802,59.5191665],[15.7617048,59.5165804],[15.7638114,59.5152349],[15.764644,59.5147096],[15.7667213,59.5133762],[15.768415,59.5109627],[15.7804461,59.5063628],[15.7840829,59.503768],[15.787972,59.5009688],[15.7882284,59.5004721],[15.7868795,59.4986699],[15.7813998,59.4975404],[15.7814981,59.4974092],[15.7816495,59.4973444],[15.7819138,59.4972418],[15.7821219,59.4971823],[15.7822876,59.4971427],[15.7824888,59.4971568],[15.7826761,59.4972158],[15.7828245,59.4972425],[15.7829552,59.4972603],[15.7830046,59.4972585],[15.7830539,59.4972261],[15.7830325,59.4971813],[15.7829859,59.4970269],[15.7829575,59.4969785],[15.7830245,59.4969533],[15.7831549,59.4969137],[15.7832924,59.4968866],[15.7833488,59.4968632],[15.7833698,59.4968201],[15.7833695,59.4967519],[15.7834151,59.4966854],[15.7834783,59.4966154],[15.7834993,59.4965758],[15.7835555,59.496513],[15.7837315,59.4964051],[15.7837841,59.4963278],[15.7838507,59.4962021],[15.7838857,59.49615],[15.7839137,59.4960979],[15.7839665,59.4960548],[15.7840405,59.4960314],[15.7841675,59.4960061],[15.7843262,59.495979],[15.7844426,59.4959609],[15.784566,59.4959284],[15.7846117,59.4958978],[15.7846821,59.4958421],[15.7847277,59.4957864],[15.7847381,59.4957344],[15.7846384,59.4955335],[15.7846558,59.495485],[15.7848461,59.4954237],[15.7849201,59.4953895],[15.7849446,59.4953411],[15.7849867,59.4952943],[15.7850677,59.495253],[15.7852017,59.4952259],[15.7853111,59.4952168],[15.7854241,59.4952166],[15.7855194,59.4952201],[15.7856181,59.4952002],[15.785685,59.4951607],[15.7857377,59.4951103],[15.7857375,59.4950601],[15.7857726,59.4950062],[15.7858394,59.4949559],[15.7859521,59.4949144],[15.7859872,59.4948642],[15.7860046,59.4948121],[15.7860044,59.4947618],[15.7859864,59.4946901],[15.7860039,59.4946434],[15.7860351,59.4945177],[15.7861265,59.494444],[15.786218,59.4943847],[15.7863484,59.4943306],[15.78644,59.4942893],[15.7865316,59.4942533],[15.7865914,59.4942209],[15.7866406,59.4941777],[15.7866615,59.4941149],[15.7866472,59.4940611],[15.7865905,59.4940163],[15.7864916,59.4939859],[15.7864172,59.4939375],[15.7863076,59.4938946],[15.7862015,59.4938265],[15.7861589,59.4937888],[15.7861093,59.4937351],[15.7860773,59.4936884],[15.7860417,59.4936239],[15.7860908,59.4935574],[15.7861083,59.4935071],[15.7862317,59.4934908],[15.7863411,59.4934907],[15.7865528,59.4934797],[15.786694,59.4934777],[15.7868068,59.4934542],[15.786895,59.4934272],[15.7870182,59.4933678],[15.7871027,59.4933121],[15.7871694,59.4932312],[15.787201,59.4932078],[15.7872998,59.4931988],[15.7874373,59.4931663],[15.7874759,59.4931249],[15.7874864,59.4930872],[15.7874648,59.4929993],[15.7874399,59.4929527],[15.7874748,59.4928611],[15.7875062,59.4927875],[15.7875058,59.4927067],[15.7874985,59.4926403],[15.7874628,59.492547],[15.78742,59.4924555],[15.7874057,59.4923999],[15.7873808,59.4923605],[15.7889368,59.4928795],[15.7922749,59.4899509],[15.7942603,59.4867426],[15.7935136,59.4862751],[15.7967265,59.4837849],[15.7982274,59.4826503],[15.7990744,59.4819976],[15.7996121,59.4815768],[15.8000304,59.4812694],[15.8013447,59.4802355],[15.8032563,59.4787574],[15.8040047,59.4781694],[15.8046196,59.4776929],[15.8051505,59.4773499],[15.805789,59.4768993],[15.8073687,59.4760124],[15.807791,59.4757516],[15.8078961,59.4755989],[15.8081257,59.4756345],[15.808837,59.47539],[15.8089816,59.475379],[15.8091084,59.475334],[15.8092386,59.4752783],[15.8095418,59.4752367],[15.8097664,59.4752283],[15.8098911,59.4750457],[15.8099904,59.4748308],[15.8101473,59.4746222],[15.8102071,59.4745895],[15.8102684,59.4745936],[15.8103315,59.4745882],[15.8103514,59.4745525],[15.8103867,59.4745531],[15.8103905,59.4744954],[15.8104173,59.4744653],[15.8104555,59.474441],[15.8105667,59.4744327],[15.8106314,59.4744158],[15.8106621,59.4743476],[15.810701,59.4743425],[15.8108678,59.4743369],[15.8109486,59.4742833],[15.8109498,59.4742228],[15.8108688,59.4741935],[15.8107249,59.4742092],[15.8106992,59.4742068],[15.8106921,59.474195],[15.8107634,59.474135],[15.8111606,59.4740473],[15.8112266,59.4740461],[15.8113594,59.4740717],[15.8114301,59.4740596],[15.8115233,59.4740056],[15.8115356,59.473923],[15.8116569,59.4738303],[15.8117895,59.4737591],[15.8120373,59.4736659],[15.8121645,59.4736105],[15.8125041,59.4733547],[15.8125294,59.4731806],[15.8125134,59.473069],[15.8125491,59.4730189],[15.8126941,59.472905],[15.8127659,59.4728704],[15.8128217,59.4728351],[15.812819,59.4727647],[15.8129319,59.4727181],[15.813048,59.4726932],[15.8132422,59.4725556],[15.8134436,59.4724922],[15.8134454,59.4724625],[15.8134807,59.4724194],[15.8135892,59.472342],[15.8137025,59.4722448],[15.8138486,59.4722155],[15.8139505,59.4721604],[15.8139159,59.4720842],[15.8138839,59.4719363],[15.8141837,59.4715685],[15.8143757,59.471548],[15.8144476,59.4715225],[15.8144629,59.4714725],[15.8144136,59.4713572],[15.8144437,59.4712796],[15.8144318,59.471264],[15.8145652,59.4711004],[15.8159932,59.4707695],[15.8162584,59.4707576],[15.8178659,59.4706159],[15.8185932,59.4700301],[15.8191951,59.4697782],[15.8201065,59.4693662],[15.8207718,59.4690998],[15.8202912,59.4688797],[15.8204494,59.4687736],[15.8204631,59.4686911],[15.8206702,59.4684827],[15.8209306,59.4683622],[15.8216433,59.4669473],[15.8231454,59.4640028],[15.8235699,59.4635501],[15.8253322,59.4597851],[15.8274013,59.4561328],[15.8278866,59.4551884],[15.8281311,59.4547233],[15.8286966,59.4536047],[15.8287555,59.4533965],[15.8294575,59.4513985],[15.8322476,59.4476285],[15.8371556,59.4487259],[15.8418909,59.4497623],[15.8434369,59.4501711],[15.8451347,59.4506174],[15.8502952,59.4519598],[15.8541791,59.4531225],[15.8553729,59.4535533],[15.8565951,59.4539911],[15.858877,59.4547971],[15.8608481,59.4554905],[15.8611978,59.455621],[15.8615652,59.4557406],[15.8619149,59.4558765],[15.8622788,59.4560034],[15.8626709,59.4561445],[15.8638826,59.4565734],[15.8646139,59.4568199],[15.8654088,59.4571023],[15.8677581,59.4579241],[15.8680759,59.4568506],[15.8682933,59.4560859],[15.8684354,59.4556963],[15.8688054,59.4545221],[15.8691887,59.4532332],[15.8700529,59.4504774],[15.8701735,59.450043],[15.8716163,59.447403],[15.8716653,59.4473563],[15.8715411,59.4472201],[15.8714768,59.4470802],[15.8714337,59.4469529],[15.8714078,59.4467609],[15.871396,59.4465546],[15.871381,59.4464039],[15.8714471,59.4462692],[15.871626,59.4461361],[15.871879,59.4460155],[15.872276,59.4458229],[15.8725711,59.4456717],[15.8728728,59.4454595],[15.8731289,59.4452725],[15.8733217,59.4451035],[15.8733635,59.4450299],[15.8733453,59.4449456],[15.8732565,59.4448326],[15.8732172,59.4447448],[15.873382,59.4446081],[15.8736455,59.4444785],[15.8740746,59.444354],[15.8744616,59.4442476],[15.8747645,59.4442327],[15.8748913,59.4442164],[15.8750389,59.4441462],[15.875123,59.4440832],[15.8751649,59.4440204],[15.8751678,59.4439127],[15.8750822,59.4437513],[15.8750248,59.4435899],[15.8750451,59.4434661],[15.8751326,59.4433637],[15.8751529,59.4432344],[15.8750956,59.4430981],[15.8750666,59.4429618],[15.8751328,59.4428451],[15.8752975,59.4427066],[15.8755119,59.4426184],[15.8757511,59.4425516],[15.8759408,59.4424526],[15.8760527,59.4423196],[15.876115,59.4421473],[15.8761068,59.4419679],[15.8761164,59.4418064],[15.8761396,59.4415802],[15.8760344,59.4411084],[15.8759594,59.4409489],[15.8760152,59.4408483],[15.876201,59.4407098],[15.8762988,59.4405679],[15.8763859,59.4404188],[15.8765083,59.4402697],[15.8766838,59.4401707],[15.8769264,59.4400842],[15.8772467,59.4400281],[15.8774507,59.4399793],[15.8775351,59.4399487],[15.8775736,59.4399109],[15.8776012,59.4398104],[15.8775618,59.4397118],[15.8774343,59.4396115],[15.8773846,59.4395506],[15.8773948,59.4394895],[15.8775038,59.439466],[15.8776022,59.4394192],[15.8776721,59.4393419],[15.8779315,59.439119],[15.8781454,59.4389608],[15.8782749,59.4388368],[15.8785981,59.4386819],[15.8789212,59.4385145],[15.8790614,59.4384012],[15.8791027,59.4382469],[15.8791015,59.4380674],[15.8790687,59.4379024],[15.8790821,59.4377893],[15.8792223,59.4376778],[15.8794119,59.4375752],[15.8796119,59.4374493],[15.8798752,59.4372964],[15.880061,59.4371507],[15.8801834,59.4370105],[15.8801646,59.4368311],[15.880033,59.4366376],[15.8798697,59.4364476],[15.8797349,59.4363132],[15.8797341,59.4361876],[15.8798743,59.4360762],[15.8800924,59.4360274],[15.8804128,59.4359838],[15.8807223,59.4359115],[15.8809682,59.4358016],[15.8810978,59.4356848],[15.8811255,59.4356022],[15.8810264,59.4355342],[15.8808499,59.435486],[15.8805079,59.4354381],[15.8801764,59.4353866],[15.8798625,59.4353333],[15.879633,59.4352673],[15.8794213,59.4352084],[15.8792658,59.4351279],[15.8791664,59.4350276],[15.8792008,59.4348911],[15.8794499,59.43474],[15.8796993,59.4346194],[15.8798219,59.4345187],[15.8800286,59.4343371],[15.8801755,59.4341718],[15.8802311,59.4340407],[15.8801736,59.4338775],[15.8801938,59.4337375],[15.8802741,59.4336136],[15.8803542,59.4334807],[15.8803673,59.4333174],[15.8803133,59.4331434],[15.8801782,59.4329606],[15.8800433,59.4327975],[15.8799079,59.4325555],[15.8797654,59.4323188],[15.8796369,59.4320589],[15.8795687,59.4318544],[15.879497,59.4316571],[15.879373,59.431555],[15.8792283,59.4315068],[15.8789886,59.4314803],[15.8784318,59.4314435],[15.8782588,59.4313864],[15.8781315,59.4313076],[15.878096,59.4312772],[15.8780707,59.4311695],[15.8781827,59.4310617],[15.8783545,59.4309286],[15.8785262,59.430792],[15.8785677,59.4306789],[15.878532,59.4305946],[15.8785474,59.4304908],[15.8784521,59.4304118],[15.8783957,59.4303508],[15.8782723,59.4302899],[15.8781806,59.4302091],[15.87817,59.4301373],[15.878251,59.4300817],[15.8784659,59.4300099],[15.8786666,59.4299255],[15.8787934,59.4298573],[15.8788532,59.4297603],[15.8789094,59.4296311],[15.8790114,59.4294624],[15.8790958,59.4292919],[15.8792754,59.4291483],[15.8794303,59.4290495],[15.8797438,59.4289651],[15.8801842,59.4288825],[15.8804307,59.4288447],[15.8806808,59.4287675],[15.8808569,59.4286777],[15.8809379,59.4286185],[15.8810787,59.4284892],[15.8811878,59.4283241],[15.881346,59.4280459],[15.8814585,59.427818],[15.8814831,59.4277606],[15.8815641,59.4276923],[15.8818916,59.4275917],[15.8823248,59.4274624],[15.8826348,59.4273547],[15.882832,59.4272828],[15.8830045,59.4271841],[15.8831418,59.4270548],[15.8833952,59.4268448],[15.8835606,59.4266833],[15.8837929,59.4264625],[15.8839653,59.4262937],[15.884085,59.426195],[15.8843843,59.4260352],[15.8845111,59.4259724],[15.8846237,59.4258808],[15.884775,59.4256887],[15.8849932,59.4254841],[15.8852008,59.4252831],[15.8852501,59.4252328],[15.8853063,59.425082],[15.8853587,59.42475],[15.8854818,59.4246226],[15.8856579,59.4245077],[15.8858515,59.4244305],[15.886165,59.4243532],[15.8865525,59.42431],[15.8868342,59.4242597],[15.8871265,59.4241663],[15.8872884,59.4240765],[15.8876124,59.4239256],[15.8880172,59.423712],[15.8882743,59.4236114],[15.8884961,59.4235072],[15.8888341,59.4233654],[15.8890347,59.4232451],[15.8892318,59.4230853],[15.8894183,59.4228789],[15.8895484,59.4226922],[15.889608,59.4225289],[15.8896219,59.4223512],[15.8896146,59.42217],[15.8896145,59.4220856],[15.8897129,59.4219277],[15.8898749,59.4218433],[15.8900263,59.4218109],[15.8902236,59.4217947],[15.8905266,59.4218377],[15.8907591,59.421886],[15.8909353,59.4219326],[15.8911961,59.4220456],[15.891531,59.4221675],[15.891746,59.4222482],[15.8918764,59.422293],[15.8920138,59.4223181],[15.8923978,59.4223449],[15.8926796,59.4223017],[15.8929542,59.4222406],[15.8936516,59.4220966],[15.8940848,59.4220711],[15.8951273,59.4220955],[15.8957471,59.4220717],[15.8961766,59.4220068],[15.8968911,59.4218538],[15.8973452,59.4217476],[15.8978554,59.4215785],[15.898341,59.4213915],[15.8985942,59.4212764],[15.8988091,59.4212996],[15.9034198,59.4215563],[15.9043638,59.4216005],[15.9046243,59.421559],[15.9061061,59.4212527],[15.9077604,59.4209068],[15.908415,59.4207681],[15.9097489,59.4204978],[15.9130291,59.419806],[15.9135007,59.4197086],[15.9143841,59.4195446],[15.9152711,59.419393],[15.9158166,59.4192957],[15.9159819,59.4192219],[15.9160521,59.4191627],[15.9160272,59.4190604],[15.9159389,59.4189618],[15.9158682,59.4189044],[15.916083,59.418897],[15.9165796,59.4189199],[15.9173193,59.4189713],[15.9178864,59.4190175],[15.9182564,59.41908],[15.9188588,59.4191494],[15.9194296,59.4192476],[15.9201097,59.419369],[15.9206663,59.4194457],[15.9208918,59.4194814],[15.9212223,59.4193106],[15.9224494,59.4187208],[15.923905,59.4180375],[15.9259426,59.417639],[15.9261184,59.417576],[15.9263848,59.4172204],[15.9273454,59.4159866],[15.9281761,59.4148623],[15.9284869,59.4141316],[15.9287175,59.4136163],[15.9248495,59.4130206],[15.9255673,59.4118606],[15.9256938,59.4117672],[15.9257603,59.4116487],[15.9257633,59.4114979],[15.9259107,59.4113668],[15.9259879,59.4113075],[15.9259735,59.4112034],[15.9259731,59.4110886],[15.9260326,59.4109808],[15.9262316,59.4104871],[15.9266646,59.4094548],[15.9274371,59.4078227],[15.9279419,59.4072121],[15.9294367,59.405818],[15.9298088,59.4055107],[15.9309217,59.4046877],[15.93135,59.4043678],[15.932294,59.4045374],[15.9335937,59.4047676],[15.9347879,59.4049925],[15.9360806,59.4052209],[15.9366231,59.4053388],[15.9374547,59.4055587],[15.9387268,59.4059037],[15.9396572,59.4061881],[15.9408343,59.4065511],[15.9418247,59.4068677],[15.9447758,59.4079225],[15.9458702,59.4083051],[15.946661,59.4085885],[15.9473622,59.4088115],[15.9478916,59.4089608],[15.9487586,59.4091824],[15.9498052,59.4094325],[15.9507424,59.409627],[15.9518593,59.4098393],[15.9528916,59.410023],[15.9543043,59.4102367],[15.9553857,59.4103682],[15.956562,59.4104709],[15.9576785,59.4105503],[15.9584918,59.4105835],[15.9591713,59.4105701],[15.9599318,59.4105692],[15.9616508,59.4107609],[15.9646889,59.410646],[15.9684638,59.4114865],[15.9687434,59.4110483],[15.9689389,59.4107071],[15.9679378,59.4104517],[15.9676981,59.4103874],[15.9671164,59.4102248],[15.9664008,59.4100426],[15.9658016,59.4099142],[15.96509,59.4098199],[15.9644808,59.4097938],[15.9635621,59.4098523],[15.9627528,59.4099664],[15.9621335,59.4100515],[15.961711,59.4100591],[15.9611721,59.4099988],[15.9607139,59.4098988],[15.9604461,59.4098507],[15.9629032,59.405074],[15.9622714,59.4039064],[15.9652074,59.4023971],[15.9676352,59.4025174],[15.9754909,59.3952472],[15.9770042,59.3954385],[15.9782956,59.3954045],[15.9812108,59.3911342],[15.9919824,59.3754023],[15.9972464,59.3675951],[15.9944516,59.3679352],[15.9944036,59.3677308],[15.9943811,59.3675219],[15.9943438,59.3672501],[15.9943304,59.3668192],[15.9943377,59.3666103],[15.9943622,59.3664122],[15.9943361,59.3663209],[15.9942069,59.3660839],[15.9941295,59.36596],[15.9940243,59.3657437],[15.9939271,59.3655926],[15.9938077,59.3655022],[15.993367,59.3653776],[15.9932368,59.3653115],[15.9931365,59.3652303],[15.9929054,59.36505],[15.9928069,59.3649631],[15.9927077,59.364819],[15.9927201,59.3646935],[15.9928598,59.364517],[15.9929956,59.3644146],[15.9930959,59.3643038],[15.9931673,59.3641637],[15.9932467,59.3640393],[15.9933268,59.3638353],[15.9933732,59.3636505],[15.9932929,59.3633151],[15.9932924,59.3632213],[15.9933376,59.3630961],[15.9933519,59.3629123],[15.993305,59.3627404],[15.9932963,59.3625449],[15.9933181,59.3623337],[15.9933697,59.3621626],[15.9934386,59.3619661],[15.9935755,59.361786],[15.993751,59.3616724],[15.9939953,59.3615391],[15.9941637,59.3613977],[15.9942924,59.3612415],[15.9943909,59.3610498],[15.9945354,59.3608815],[15.994764,59.360674],[15.9950385,59.3604468],[15.9953283,59.3602274],[15.9956031,59.3600745],[15.9960788,59.3598958],[15.9962831,59.3597999],[15.9963963,59.3596562],[15.9964444,59.3595412],[15.9963685,59.3594927],[15.9958281,59.3592318],[15.9906646,59.3567145],[15.9792174,59.3531326],[15.9733706,59.3522035],[15.9653089,59.3519303],[15.9569389,59.3500201],[15.9555479,59.3497119],[15.9543739,59.3494413],[15.9508415,59.3476899],[15.9505327,59.3475514],[15.9494872,59.3470191],[15.9483997,59.3464526],[15.947428,59.3459706],[15.9453477,59.3449292],[15.9402406,59.3423572],[15.9383221,59.3413931],[15.938345,59.3409641],[15.9383575,59.34063],[15.9381556,59.333808],[15.9387883,59.3299923],[15.9413995,59.3268119],[15.9424698,59.3227488],[15.9405703,59.3226206],[15.938649,59.3224947],[15.9378755,59.3222585],[15.9313954,59.3202641],[15.9308749,59.3200719],[15.9303981,59.3199557],[15.9249043,59.3189867],[15.9198757,59.317281],[15.9175578,59.3165099],[15.9111928,59.3156269],[15.911657,59.311289],[15.9118764,59.3090173],[15.9119275,59.3084499],[15.9122111,59.3058644],[15.9122482,59.3054748],[15.9117628,59.3050029],[15.9112943,59.3045299],[15.9110057,59.3042427],[15.908448,59.3013531],[15.9081651,59.3010559],[15.9064766,59.2991766],[15.9058514,59.2984769],[15.9035501,59.2970288],[15.9025061,59.2963608],[15.8996866,59.2969553],[15.8874364,59.2996203],[15.885805,59.2999714],[15.8839164,59.3010767],[15.8805597,59.3030939],[15.8769327,59.2930283],[15.8765552,59.2919154],[15.8787685,59.2919591],[15.8796349,59.2899972],[15.8764682,59.2892134],[15.8765493,59.2891954],[15.8765603,59.2891954],[15.8766392,59.2891595],[15.8766983,59.289119],[15.8768449,59.2889529],[15.8769608,59.2887868],[15.8770329,59.288688],[15.8771292,59.2885937],[15.8772212,59.2885084],[15.8773939,59.2882704],[15.8775208,59.2881312],[15.877558,59.2880773],[15.8768887,59.2879205],[15.8767636,59.2878937],[15.87652,59.287831],[15.8780696,59.2843606],[15.87834,59.2836917],[15.8780354,59.2827987],[15.8773602,59.280869],[15.8771153,59.2801824],[15.8758952,59.2797387],[15.87222,59.2785287],[15.8715837,59.278309],[15.8681148,59.2805055],[15.8685318,59.2807073],[15.8698267,59.2813081],[15.8702525,59.281492],[15.8708513,59.2815994],[15.8726106,59.2818948],[15.8731568,59.2819843],[15.8728306,59.2822537],[15.8700193,59.2844499],[15.8698901,59.2845532],[15.8677585,59.2845542],[15.8677881,59.2851377],[15.8687721,59.2859137],[15.8700203,59.2860747],[15.8678809,59.2901018],[15.8651357,59.286167],[15.865337,59.285364],[15.8648246,59.2842853],[15.8668365,59.27965],[15.8673531,59.2789259],[15.8808481,59.2532221],[15.8927381,59.2304836],[15.7620367,59.1979186]],[[15.8138284,59.4722003],[15.8136864,59.4722287],[15.813643,59.4722318],[15.8138559,59.4719706],[15.8138811,59.4720872],[15.8139119,59.4721551],[15.8138284,59.4722003]],[[15.814415,59.4715122],[15.8143614,59.4715311],[15.8142001,59.4715484],[15.8143974,59.4713063],[15.8143776,59.4713574],[15.814427,59.4714731],[15.814415,59.4715122]]]]}}]}